,Name,City,Country,Arena,Capactity,Logo URL,Division,City,State,,,,,,,,,,,,,,,,,,,,
Team,Hawks,Atlanta,USA,Philips Arena,20000,http://gmgames.org/dm16logos/Team0.png,Southeast,Atlanta,Georgia,,,,,,,,,,,,,,,,,,,,
Team,Celtics,Boston,USA,TD Garden,18700,http://gmgames.org/dm16logos/Team1.png,Atlantc,Boston,Massachusetts,,,,,,,,,,,,,,,,,,,,
Team,Nets,Brooklyn,USA,Barclays Center,19000,http://gmgames.org/dm16logos/Team2.png,Atlantic,Brooklyn,New York,,,,,,,,,,,,,,,,,,,,
Team,Hornets,Charlotte,USA,Time Warner Cable Arena,19000,http://gmgames.org/dm16logos/Team3.png,Southeast,Charlotte,North Carolina,,,,,,,,,,,,,,,,,,,,
Team,Bulls,Chicago,USA,United Center,23000,http://gmgames.org/dm16logos/Team4.png,Central,Chicago,Illinois,,,,,,,,,,,,,,,,,,,,
Team,Cavaliers,Cleveland,USA,Quicken Loans Arena,21000,http://gmgames.org/dm16logos/Team5.png,Central,Cleveland,Ohio,,,,,,,,,,,,,,,,,,,,
Team,Mavericks,Dallas,USA,American Airlines Center,19000,http://gmgames.org/dm16logos/Team6.png,Southwest,Dallas,Texas,,,,,,,,,,,,,,,,,,,,
Team,Nuggets,Denver,USA,Pepsi Center,19000,http://gmgames.org/dm16logos/Team7.png,Northwest,Denver,Colorado,,,,,,,,,,,,,,,,,,,,
Team,Pistons,Detroit,USA,The Palace at Auburn Hills,22000,http://gmgames.org/dm16logos/Team8.png,Central,Detroit,Michigan,,,,,,,,,,,,,,,,,,,,
Team,Warriors,Golden State,USA,Oracle Arena,20000,http://gmgames.org/dm16logos/Team9.png,Pacific,Oakland,California,,,,,,,,,,,,,,,,,,,,
Team,Rockets,Houston,USA,Toyota Center,18000,http://gmgames.org/dm16logos/Team10.png,Southwest,Houston,Texas,,,,,,,,,,,,,,,,,,,,
Team,Pacers,Indiana,USA,Bankers Life Fieldhouse,19000,http://gmgames.org/dm16logos/Team11.png,Central,Indianapolis,Indiana,,,,,,,,,,,,,,,,,,,,
Team,Clippers,Los Angeles,USA,Staples Center,19000,http://gmgames.org/dm16logos/Team12.png,Pacific,Los Angeles,California,,,,,,,,,,,,,,,,,,,,
Team,Lakers,Los Angeles,USA,Staples Center,19000,http://gmgames.org/dm16logos/Team13.png,Pacific,Los Angeles,California,,,,,,,,,,,,,,,,,,,,
Team,Grizzlies,Memphis,USA,FedEx Forum,18000,http://gmgames.org/dm16logos/Team14.png,Southwest,Memphis,Tennessee,,,,,,,,,,,,,,,,,,,,
Team,Heat,Miami,USA,American Airlines Arena,20000,http://gmgames.org/dm16logos/Team15.png,Southeast,Miami,Florida,,,,,,,,,,,,,,,,,,,,
Team,Bucks,Milwaukee,USA,Bradley Center,19000,http://gmgames.org/dm16logos/Team16.png,Central,Milwaukee,Wisconsin,,,,,,,,,,,,,,,,,,,,
Team,Timberwolves,Minnesota,USA,Target Center,20000,http://gmgames.org/dm16logos/Team17.png,Northwest,Minneapolis,Minnesota,,,,,,,,,,,,,,,,,,,,
Team,Pelicans,New Orleans,USA,Smoothie King Center,19000,http://gmgames.org/dm16logos/Team18.png,Southwest,New Orleans,Louisiana,,,,,,,,,,,,,,,,,,,,
Team,Knicks,New York,USA,Madison Square Garden,20000,http://gmgames.org/dm16logos/Team19.png,Atlantic,New York,New York,,,,,,,,,,,,,,,,,,,,
Team,SuperSonics,Seattle,USA,Chesapeake Energy Arena,19000,http://gmgames.org/dm16logos/Team20.png,Northwest,Seattle,Washignton,,,,,,,,,,,,,,,,,,,,
Team,Magic,Orlando,USA,Amway Center,19000,http://gmgames.org/dm16logos/Team21.png,Southeast,Orlando,Florida,,,,,,,,,,,,,,,,,,,,
Team,76ers,Philadelphia,USA,Wells Fargo Center,22000,http://gmgames.org/dm16logos/Team22.png,Atlantic,Philadelphia,Pennsylvania,,,,,,,,,,,,,,,,,,,,
Team,Suns,Phoenix,USA,Talking Stick Resort Arena,18000,http://gmgames.org/dm16logos/Team23.png,Pacific,Phoenix,Arizona,,,,,,,,,,,,,,,,,,,,
Team,Trail Blazers,Portland,USA,Moda Center,20000,http://gmgames.org/dm16logos/Team24.png,Northwest,Portland,Oregon,,,,,,,,,,,,,,,,,,,,
Team,Kings,Sacramento,USA,Sleep Train Arena,17000,http://gmgames.org/dm16logos/Team25.png,Pacific,Sacramento,California,,,,,,,,,,,,,,,,,,,,
Team,Spurs,San Antonio,USA,AT&T Centre,19000,http://gmgames.org/dm16logos/Team26.png,Southwest,San Antonio,Texas,,,,,,,,,,,,,,,,,,,,
Team,Raptors,Toronto,Canada,Air Canada Centre,20000,http://gmgames.org/dm16logos/Team27.png,Atlantic,Toronto,Canada,,,,,,,,,,,,,,,,,,,,
Team,Jazz,Utah,USA,Vivint Smart Home Arena,20000,http://gmgames.org/dm16logos/Team28.png,Northwest,Salt Lake City,Utah,,,,,,,,,,,,,,,,,,,,
Team,Wizards,Washington,USA,Verizon Center,20000,http://gmgames.org/dm16logos/Team29.png,Southeast,Washincton,D.C,,,,,,,,,,,,,,,,,,,,
NewFranchiseLogo,,,,,,http://gmgames.org/dm16logos/Team30.png,,,,,,,,,,,,,,,,,,,,,,,
,,,,,,,,,,,,,,,,,,,,,,,,,,,,,
Type,FirstName,Last Name,Position,Age,Height,Weight,Team ID,Defence,TurnOvers,FTA,FTPerc,2PTA,2PTPerc,3PTA,ThreePerc,OffReb,Fame,DefReb,FastBreak,Assists,Personality,Potential,Steals,Blocks,Stamina,Trait,,,
players,Al,Horford,C,29,212.5,254,0,89,1.32,1.53,0.79,9.94,0.557,3.16,0.343,1.83,70,5.5,46,3.26,70,67,0.81,1.53,80,PT,,,
players,Paul,Millsap,PF,30,208.1,246,0,81,2.31,5.03,0.756,10.38,0.515,2.92,0.322,2.41,76,6.64,52,3.32,70,65,1.81,1.71,86,HH,,,
players,Kent,Bazemore,SF,26,198.7,196,0,45,2.02,2.24,0.812,6.78,0.5,4.6,0.362,0.45,16,5.16,46,2.58,97,69,1.46,0.56,72,,,,
players,Kyle,Korver,SG,35,202.5,217,0,84,1.03,0.91,0.843,4.38,0.519,5.47,0.404,0.56,56,3.31,68,2.7,70,62,1.09,0.45,79,,,,
players,Jeff,Teague,PG,27,189.5,195,0,70,2.98,4.41,0.835,10.38,0.451,3.75,0.401,0.44,65,2.54,72,6.62,75,70,1.32,0.33,88,SP,,,
players,Dennis,Schroeder,PG,22,188.2,170,0,48,3.26,3.12,0.807,10.42,0.463,4.12,0.322,0.43,27,3.26,46,6.24,46,77,1.28,0.14,75,,,,
players,Thabo,Sefolosha,SF,31,201.2,226,0,70,1.15,1.66,0.639,4.64,0.576,2.04,0.344,0.89,27,4.71,38,1.78,75,67,1.4,0.64,60,,,,
players,Tim,Hardaway,SG,24,198.7,205,0,48,0.65,1.79,0.889,5.66,0.542,4.56,0.324,0.16,12,2.44,62,1.63,39,67,0.65,0.16,72,,,,
players,Tiago,Splitter,C,30,211.1,245,0,63,1.19,2.21,0.813,7.21,0.548,0.17,0.157,2.21,18,3.57,26,1.36,60,64,1.02,0.51,57,,,,
players,Kris,Humphries,PF,31,207.2,235,0,41,1.32,4.14,0.721,7.62,0.576,3.01,0.258,1.88,8,4.71,39,1.13,75,57,0.75,0.75,43,,,,
players,Mike,Scott,PF,27,208.1,237,0,63,1.06,1.42,0.787,6.76,0.517,3.72,0.385,1.24,6,3.72,38,1.77,75,56,0.53,0.35,43,,,,
players,Mike,Muscala,PF,24,212.5,240,0,39,1.34,1.6,0.784,5.98,0.577,1.87,0.308,1.6,4,3.48,35,1.6,75,61,0.53,1.07,47,,,,
players,Kirt,Hinrich,PG,35,195.2,187,0,72,1,0,0,3.08,0.46,2.01,0.334,0.33,18,3.68,60,4.69,65,52,0.67,0.33,65,,,,
,,,,,,,,,,,,,,,,,,,,,,,,,,,,,
,,,,,,,,,,,,,,,,,,,,,,,,,,,,,
,,,,,,,,,,,,,,,,,,,,,,,,,,,,,
players,Kelly,Olynyk,C,25,215.2,238,1,56,1.56,2.7,0.75,8.52,0.49,4.27,0.405,1.42,32,4.27,16,2.13,75,73,1.14,0.71,72,IH,,,
players,Jared,Sullinger,PF,24,206.1,260,1,61,1.65,2.53,0.64,11.36,0.448,1.65,0.282,3.04,37,7.47,32,2.91,75,76,1.14,0.76,50,,,,
players,Jae,Crowder,SF,25,200,235,1,74,1.13,3.4,0.82,6.43,0.525,5.15,0.336,1.03,42,4.32,68,1.85,60,66,1.75,0.51,75,PT,,,
players,Avery,Bradley,SG,25,188.5,178,1,92,1.4,1.6,0.78,8,0.512,5.4,0.361,0.6,64,2.3,78,2.1,60,63,1.5,0.3,84,PT,,,
players,Isaiah,Thomas,PG,26,175.9,168,1,74,2.74,6.71,0.871,11.48,0.464,5.79,0.359,0.61,72,2.44,94,6.3,75,74,1.12,0.1,91,HH,,,
players,Evan,Turner,SF,27,202,219,1,71,2.35,2.46,0.827,9.41,0.482,1.12,0.241,0.67,53,4.81,64,4.92,80,67,1.12,0.34,82,,,,
players,Marcus,Smart,SG,22,195.1,201,1,64,1.48,3.08,0.777,5.91,0.426,4.56,0.253,1.37,41,3.3,66,3.42,69,66,1.71,0.34,72,,,,
players,Amir,Johnson,PF,28,206.5,240,1,76,1.56,1.95,0.57,6.51,0.633,0.65,0.233,2.99,24,5.32,50,2.21,65,65,0.91,1.43,68,,,,
players,Tyler,Zeller,C,25,215.5,253,1,56,1.76,3.96,0.815,10.55,0.479,0.07,0.114,2.2,18,4.18,30,1.1,70,67,0.44,0.88,42,,,,
players,Phil,Pressey,PG,24,180.9,175,1,41,1.87,1.88,0.67,6.11,0.398,2.19,0.247,0.81,6,2.71,44,5.04,65,52,1.18,0.24,64,,,,
players,Jonas,Jerebko,PF,29,209.5,231,1,72,1.25,1.79,0.782,5.22,0.391,2.51,0.398,1.79,16,4.83,41,1.43,65,54,0.54,0.54,63,,,,
,,,,,,,,,,,,,,,,,,,,,,,,,,,,,
,,,,,,,,,,,,,,,,,,,,,,,,,,,,,
players,Brook,Lopez,C,27,215.6,275,2,72,2.4,5.5,0.787,15.6,0.519,0.2,0.143,2.8,70,5.1,42,2,65,68,0.8,1.7,76,PT,,,
players,Thaddeus,Young,PF,27,203.5,221,2,68,1.9,2.2,0.644,12.8,0.523,0.4,0.233,2.4,43,6.6,42,1.9,75,65,1.5,0.5,69,,,,
players,Bojan,Bogdanovic,SG,27,202.7,216,2,88,1.56,2.05,0.843,7,0.495,5.1,0.392,0.68,27,3.47,82,1.68,45,56,0.52,0.17,88,IH,,,
players,Rondae,Hollis-Jefferson,SG,21,197.1,222,2,56,1.23,2.47,0.712,6.08,0.488,0.69,0.286,1.78,27,5.48,52,2.06,40,71,1.78,0.82,70,R,,,
players,Jarrett,Jack,PG,32,191.1,198,2,74,2.95,3.57,0.893,8.21,0.425,3.26,0.304,0.31,34,4.07,78,7.54,70,60,1.12,0.2,86,,,,
players,Shane,Larkin,PG,23,181,176,2,58,2.5,1.84,0.776,7.02,0.46,1.84,0.361,0.53,33,2.5,64,5.79,65,61,1.58,0.26,77,,,,
players,Henry,Sims,C,26,210.3,248,2,59,1.35,3.16,0.833,8.27,0.436,0,0,2.26,23,5.41,46,0.9,34,66,0.9,1.5,64,,,,
players,Thomas,Robinson,PF,25,209.7,237,2,57,2.04,3.06,0.431,8.36,0.439,0,0.067,3.87,9,6.32,49,1.22,65,72,1.02,1.02,54,,,,
players,Donald,Sloan,PG,28,191.1,198,2,59,1.76,2.3,0.75,6.11,0.463,2.16,0.384,0.41,19,3.51,72,5.95,70,58,0.68,0.14,80,,,,
players,Markel,Brown,SG,24,189.6,190,2,40,1.55,2.59,0.755,6.97,0.437,3.45,0.314,0.69,14,2.76,52,2.59,40,62,1.04,0.35,70,,,,
players,Sean,Kilpatrick,SG,26,194,218,2,40,1.54,3.33,0.898,9.64,0.53,5.38,0.361,0.51,15,2.18,52,1.41,40,62,0.51,0.13,70,,,,
players,Wayne,Ellington,SG,28,194,200,2,40,0.82,1.09,0.857,6.61,0.41,4.78,0.358,0.41,27,2.73,52,1.5,40,62,0.82,0.14,70,,,,
,,,,,,,,,,,,,,,,,,,,,,,,,,,,,
,,,,,,,,,,,,,,,,,,,,,,,,,,,,,
players,Al,Jefferson,C,31,210.1,289,3,72,0.89,3.07,0.649,13.67,0.486,0,0,1.53,58,6.64,51,1.92,80,62,0.77,1.15,63,HH,,,
players,Marvin,Williams,PF,29,206.5,237,3,79,0.88,1.97,0.833,5.37,0.511,5.14,0.402,1.75,30,5.36,58,1.53,80,65,0.77,1.09,82,,,,
players,Michael,Kidd-Gilchrest,SF,22,203.1,232,3,73,1.2,4.46,0.69,8.45,0.558,1.09,0.429,1.85,50,5.11,64,1.41,70,75,0.43,0.43,77,SP,,,
players,Nicolas,Batum,SG,27,205,225,3,81,2.9,2.7,0.849,6.8,0.485,5.7,0.348,0.8,53,5.3,60,5.8,70,67,0.9,0.6,74,,,,
players,Kemba,Walker,PG,25,187.2,184,3,66,2.1,5.4,0.847,10.4,0.462,6,0.371,0.7,78,3.7,93,5.2,85,78,1.6,0.5,89,HH,,,
players,Courtney,Lee,SG,30,198.1,201,3,81,0.83,0.96,0.885,6.26,0.478,3.24,0.397,0.57,38,3.33,82,2.5,60,64,1.33,0.5,89,,,,
players,Jeremy,Lin,PG,27,191.1,200,3,64,2.22,4.33,0.815,7.98,0.437,3.39,0.336,0.58,60,3.16,67,3.51,91,68,0.82,0.58,81,IH,,,
players,Jeremy,Lamb,SG,23,197.2,185,3,42,1.21,1.97,0.727,8.14,0.54,3.76,0.309,0.96,43,4.25,70,1.82,65,73,0.91,0.76,70,,,,
players,Cody,Zeller,PF,23,212.2,240,3,62,1.11,3.96,0.754,7.33,0.542,0.12,0.1,2.35,30,5.33,16,1.24,55,65,0.99,1.11,59,,,,
players,Frank,Kaminsky III,C,22,212.2,240,3,88,0.96,2.48,0.73,6.44,0.475,3.44,0.337,1.24,20,4.54,31,1.65,60,71,0.69,0.69,68,R,,,
players,Spencer,Hawes,C,27,217.1,245,3,71,1.54,1.7,0.831,6.53,0.417,2.78,0.373,1.39,18,5.24,41,2.93,75,65,0.62,0.77,60,,,,
players,Troy,Daniels,SG,24,195.2,205,3,58,1.39,0.46,0.556,7.16,0.467,6.48,0.484,0.46,28,2.78,66,1.16,60,76,0.69,0.23,76,,,,
players,Tyler,Hansbrough,PF,30,206.5,250,3,76,0.95,4.73,0.585,4.95,0.467,0.32,0.205,2.84,9,3.47,52,0.63,80,55,0.95,0.63,57,,,,
,,,,,,,,,,,,,,,,,,,,,,,,,,,,,
,,,,,,,,,,,,,,,,,,,,,,,,,,,,,
players,Pau,Gasol,C,35,215.1,250,4,74,2.36,4.1,0.792,13.15,0.484,1.03,0.348,2.26,70,9.12,34,4.2,78,72,0.62,2.05,66,HF,,,
players,Nikola,Mirotic,PF,25,209.5,221,4,68,1.83,3.29,0.807,6,0.45,6.33,0.39,1.1,34,5.6,48,1.83,69,69,1.1,0.85,60,IH,,,
players,Taj,Gibson,SF,30,206.1,223,4,81,1.28,2.33,0.692,7.91,0.529,0,0,3.26,40,4.77,40,1.75,75,67,0.7,1.28,65,,,,
players,Jimmy,Butler,SG,26,201.5,216,4,95,2,7.1,0.832,12.3,0.488,3.1,0.312,1.2,82,4.2,84,4.8,80,74,1.6,0.6,100,HH,,,
players,Derrick,Rose,PG,27,192.2,193,4,92,2.77,2.77,0.793,14,0.449,2.36,0.293,0.72,88,2.77,98,4.82,70,68,0.72,0.21,98,HH,,,
players,Doug,McDermott,SF,24,205.2,225,4,76,0.9,1.46,0.857,7.12,0.458,4.13,0.425,0.85,44,3.06,69,0.9,45,68,0.31,0.18,92,,,,
players,Etwaun,Moore,SG,27,202.8,191,4,74,1.23,0.82,0.629,7.19,0.5,2.45,0.452,0.41,14,2.59,78,2.31,75,69,0.82,0.41,70,,,,
players,Joakim,Noah,C,30,212.6,232,4,62,2.41,2.14,0.489,6.15,0.432,0,0.057,3.36,36,6.68,18,4.72,85,65,0.72,1.26,46,,,,
players,Aaron,Brooks,PG,31,183.1,161,4,60,2.04,1.53,0.766,8.86,0.415,4.59,0.357,0.51,23,2.04,79,4.42,40,53,0.68,0.17,88,,,,
players,Bobby,Portis,PF,21,210.2,237,4,57,1.41,1.56,0.727,9.85,0.435,1.12,0.308,2.44,6.5,4.29,28,1.07,83,65,0.47,0.52,44,R,,,
players,Justin,Holiday,SG,26,206.1,185,4,53,1.5,1.5,0.815,6.33,0.4,3.29,0.433,0.45,15,2.99,62,2.55,75,57,1.05,0.9,52,,,,
players,Tony,Snell,SF,24,202.8,208,4,65,1.13,0.71,0.909,5.11,0.379,3.4,0.361,0.43,33,3.97,60,1.42,75,62,0.43,0.43,70,,,,
players,Mike,Dunleavy,SF,35,208.2,234,4,62,1.04,1.56,0.784,4.75,0.414,4.17,0.394,0.39,29,3.13,48,1.69,68,41,0.65,0.39,68,,,,
,,,,,,,,,,,,,,,,,,,,,,,,,,,,,
,,,,,,,,,,,,,,,,,,,,,,,,,,,,,
players,Tristan,Thompson,PF,25,208.1,238,5,75,0.79,3.38,0.616,5.75,0.588,0,0.152,3.72,38,6.43,56,0.9,50,71,0.56,0.68,70,PT,,,
players,Kevin,Love,PF,27,210.1,243,5,78,1.86,4.23,0.822,7.4,0.457,5.88,0.36,1.96,78,8.25,62,2.48,75,68,0.83,0.52,77,,,,
players,Lebron,James,SF,31,204.6,250,5,70,3.3,6.5,0.731,14.9,0.577,3.7,0.309,1.5,100,6,91,6.8,98,76,1.4,0.6,96,HF,,,
players,JR,Smith,SG,30,200.5,225,5,66,0.84,0.94,0.684,4.95,0.455,6.93,0.4,0.63,70,2.41,86,1.78,95,62,1.15,0.31,84,EX,,,
players,Kyrie,Irving,PG,24,191.2,193,5,71,2.37,3.71,0.885,12.23,0.496,5.06,0.373,0.83,94,2.17,98,4.85,90,80,1.13,0.31,91,HH,,,
players,Matthew,Dellavedova,PG,25,195.2,198,5,80,1.81,1.1,0.864,5.13,0.403,3.81,0.41,0.54,49,2.21,72,5.49,70,73,0.76,0.15,70,IH,,,
players,Iman,Shumpert,SG,25,195.7,216,5,64,1.36,1.11,0.784,4.22,0.448,3.33,0.295,0.74,33,3.95,70,2.1,70,66,1.23,0.49,78,,,,
players,Timofey,Mozgov,C,29,216.6,252,5,68,1.44,2.08,0.716,7.41,0.587,0.16,0.143,2.24,26,4.79,28,0.64,65,62,0.48,1.28,62,IH,,,
players,Mo,Williams,PG,33,183,182,5,66,2.16,1.54,0.905,8.91,0.469,3.86,0.353,0.15,25,2.47,70,3.7,80,67,0.46,0.15,83,EX,,,
players,Channing,Frye,PF,32,212,255,5,62,0.81,0.81,0.786,5.64,0.556,7.13,0.377,0.81,20,5.02,31,1.62,70,60,0.49,0.49,55,,,,
players,James,Jones,SG,35,202.8,218,5,64,0.78,1.3,0.808,5.6,0.375,5.72,0.394,0.52,19,2.34,60,0.78,70,50,0.52,0.52,78,,,,
players,Richard,Jefferson,SF,35,201.5,203,5,55,0.94,1.87,0.667,4.26,0.526,3.59,0.382,0.31,31,2.34,52,1.25,70,60,0.62,0.31,61,,,,
,,,,,,,,,,,,,,,,,,,,,,,,,,,,,
,,,,,,,,,,,,,,,,,,,,,,,,,,,,,
players,Zaza,Pachulia,C,32,212.1,270,6,84,1.87,4.2,0.768,7.23,0.468,0,0.229,3.85,37,7.23,48,1.98,60,62,0.93,0.35,70,IH,,,
players,Dirk,Nowitzki,PF,37,213.6,245,6,88,1.13,3.82,0.893,10.67,0.48,4.75,0.368,0.77,79,6.1,59,1.95,84,64,0.75,0.75,79,HF,,,
players,Chandler,Parsons,SF,27,207,227,6,74,1.73,2.37,0.684,7.45,0.53,4.42,0.414,0.54,44,4.53,59,3.02,75,70,0.86,0.32,66,,,,
players,Wesley,Matthews,SG,29,197.6,214,6,79,1,1.9,0.863,4.2,0.429,6.7,0.36,0.3,49,2.7,84,1.9,80,67,1,0.2,85,,,,
players,Deron,Williams,PG,31,189.6,200,6,73,2.33,3.24,0.869,7.75,0.447,4.35,0.344,0.3,58,2.63,91,5.87,35,68,0.91,0.2,85,,,,
players,David,Lee,PF,32,206.2,245,6,69,1.77,2.73,0.738,9.15,0.584,0,0.186,3.85,61,7.38,43,1.93,70,65,0.64,0.96,62,,,,
players,Raymond,Felton,PG,31,180.5,197,6,75,1.7,2.5,0.847,6.96,0.466,3.07,0.282,0.57,40,3.18,67,4.09,70,60,1.02,0.23,83,,,,
players,JJ,Barea,PG,31,182.5,183,6,65,1.97,1.7,0.771,9.09,0.475,4.59,0.385,0.52,33,2.23,64,5.38,70,63,0.52,0,70,PT,,,
players,Devin,Harris,PG,33,192.5,192,6,75,1.43,3.15,0.721,5.81,0.545,3.58,0.329,0.43,35,2.72,71,2.58,65,60,1.29,0.29,80,,,,
players,Dwight,Powell,PF,24,212.1,240,6,41,1.12,3.91,0.739,6.97,0.512,0.37,0.254,2.13,11,4.78,32,1.02,70,75,0.88,0.53,38,,,,
players,Javale,McGee,C,28,216.5,260,6,58,1.41,2.59,0.5,7.51,0.576,0,0.095,3.11,38,5.88,14,0.24,80,56,0.24,1.64,36,,,,
players,Charlie,Villanueva,PF,31,212.1,232,6,45,1.19,0.96,0.917,7.86,0.48,6.53,0.311,0.96,28,5.02,41,0.96,70,57,0.72,0.48,48,,,,
,,,,,,,,,,,,,,,,,,,,,,,,,,,,,
,,,,,,,,,,,,,,,,,,,,,,,,,,,,,
players,Nikola,Jokic,C,21,210.1,250,7,58,1.75,3.23,0.811,9,0.531,1.48,0.333,3.1,27,6.33,18,3.23,45,68,1.35,0.81,63,R,,,
players,Kenneth,Faried,PF,26,204,228,7,80,1.68,3.97,0.613,11.19,0.559,0.07,0.138,4.21,69,6.26,42,1.44,75,68,0.6,1.08,70,HH,,,
players,Danilo,Gallinari,SF,27,210,225,7,68,1.5,8.2,0.868,8.7,0.437,4.5,0.364,1,62,4.3,60,2.5,70,67,0.8,0.4,74,PT,,,
players,Gary,Harris,SG,21,195.1,210,7,65,1.32,1.83,0.82,6.39,0.532,3.97,0.354,0.71,31,2.24,78,1.94,58,73,1.32,0.2,78,,,,
players,Emmanuel,Mudiay,PG,21,198,201,7,79,3.38,3.28,0.67,10.66,0.374,3.59,0.319,0.53,69.5,3.07,74,5.81,41,73.8,1.06,0.53,66,R,,,
players,Will,Barton,SF,25,199.2,175,7,44,1.87,3.63,0.806,9.2,0.475,4.4,0.345,0.77,43,5.61,46,2.75,75,60,0.99,0.55,57,,,,
players,Darrell,Arthur,PF,28,207.5,235,7,69,1.21,1.08,0.755,7.73,0.491,2.29,0.385,2.07,26,4.04,51,1.89,68,65,1.08,1.08,70,,,,
players,Jusuf,Nurkic,C,21,212.9,278,7,68,2.75,5.02,0.616,10.54,0.427,0.16,0.148,2.54,13,3.83,18,2.11,45,71,0.66,1.76,50,,,,
players,Joffrey,Lauvergne,C,24,212.9,220,7,58,1.42,1.9,0.899,9.23,0.564,1.42,0.245,2.06,27,5.7,18,1.42,45,68,0.32,0.47,63,,,,
players,Wilson,Chandler,SF,28,204.9,225,7,59,0.47,1.78,0.77,6.7,0.447,5.32,0.391,0.93,43,5.06,51,1.73,75,60,0.63,0.44,55,,,,
players,Jameer,Nelson,PG,34,183.9,188,7,63,1.97,1.04,0.857,5.47,0.436,4.29,0.323,0.58,64,2.9,77,5.69,80,63,0.7,0.12,74,,,,
players,Jakarr,Sampson,SG,23,205.7,214,7,56,1.09,1.56,0.72,5.74,0.545,1.71,0.276,0.93,31,2.64,53,0.93,58,54,0.78,1.06,71,,,,
players,Mike,Miller,SG,36,203.7,218,7,44,1.25,0,0,2.95,0.5,3.43,0.365,0.31,43,3.12,46,2.81,75,60,0.94,0.31,57,EX,,,
,,,,,,,,,,,,,,,,,,,,,,,,,,,,,
,,,,,,,,,,,,,,,,,,,,,,,,,,,,,
players,Andre,Drummond,C,22,212.5,279,8,76,1.9,7.21,0.355,13.03,0.523,0.1,0.333,4.91,79,9.92,47,0.8,70,74,1.5,1.4,70,HH,,,
players,Marcus,Morris,PF,26,206,235,8,68,1.8,3.4,0.749,8.1,0.457,3.7,0.362,1.1,38,3.9,53,2.5,65,66,0.8,0.3,75,,,,
players,Tobias,Harris,SF,23,206.5,235,8,66,1.1,3.3,0.911,9.6,0.51,3.3,0.375,0.9,48,5.3,70,2.6,75,68,0.7,0.4,78,,,,
players,Kentavious,Caldwell-Pope,SG,23,197.8,205,8,78,1.4,3,0.811,7.7,0.494,4.9,0.309,0.9,56,2.8,74,1.8,55,68,1.4,0.2,94,,,,
players,Reggie,Jackson,PG,26,191.1,208,8,77,2.94,4.51,0.864,12.28,0.461,4.41,0.353,0.73,53,2.62,92,6.51,70,73,0.73,0.1,89,SP,,,
players,Stanley,Johnson,SF,19,205.2,244,8,52,2.06,1.8,0.784,7.74,0.407,3.6,0.307,1.03,39,4.37,70,2.06,70,66.4,1.03,0.26,66,R,,,
players,Aron,Baynes,C,28,208.5,255,8,68,1.42,3.56,0.764,8.37,0.511,0.07,0.233,3.03,28,5.34,48,1.07,70,72,0.53,1.07,62,IH,,,
players,Jodie,Meeks,SG,28,194.1,208,8,52,0.56,2.41,0.9,9.4,0.441,5.55,0.401,0.56,49,2.41,72,1.85,60,65,0.91,0.27,70,,,,
players,Steve,Blake,PG,36,190.5,175,8,76,2.19,0.49,0.8,5.24,0.467,4.23,0.344,0.43,36,2.52,78,5.72,75,70,0.84,0.22,86,,,,
players,Darrun,Hillard,SG,22,197.8,205,8,60,1.26,2.76,0.725,7.24,0.429,3.27,0.38,0.25,26,2.76,56,1.76,55,63,0.5,0.03,60,,,,
players,Spencer,Dinwiddie,SG,23,199.2,200,8,35,1.19,5.56,0.576,6.48,0.405,1.19,0.176,0.5,18,1.95,56,3.39,75,54,0.54,0.05,62,,,,
players,Anthony,Tolliver,PF,30,204.9,240,8,64,0.61,1.06,0.617,3.17,0.5,5.76,0.36,0.76,10,3.94,13,1.06,66,47,0.61,0.3,50,,,,
,,,,,,,,,,,,,,,,,,,,,,,,,,,,,
,,,,,,,,,,,,,,,,,,,,,,,,,,,,,
players,Andrew,Bogut,C,32,214.4,264,9,90,1.68,0.98,0.48,5.92,0.625,0.07,0.157,2.47,50,7.64,31,3.3,82,61,0.72,2.23,48,IH,,,
players,Draymond,Green,PF,26,201.1,230,9,97,3.2,4.1,0.696,6.9,0.551,3.2,0.388,1.7,71,7.8,73,7.4,90,73,1.5,1.4,81,SP,,,
players,Harrison,Barnes,SF,23,205.5,225,9,77,0.94,2.09,0.761,6.83,0.516,3.34,0.383,1.3,54,4.09,70,1.97,80,74,0.63,0.21,85,,,,
players,Klay,Thompson,SG,26,202.6,214,9,75,1.7,2.8,0.873,9.2,0.5,8.1,0.425,0.45,70,3.52,75,2.19,57,69,0.83,0.63,89,HH,,,
players,Stephen,Curry,PG,28,190.6,190,9,84,3.3,5.1,0.908,9,0.567,9.6,0.454,0.9,100,4.6,95,6.7,80,70,2.1,0.2,96,HH,,,
players,Festus,Ezeli,C,26,211,265,9,55,1.32,4.79,0.53,8.25,0.54,0.07,0.114,3.05,27,5.94,35,1.16,55,60,0.66,1.82,70,,,,
players,Andre,Iguodala,SF,32,198.8,212,9,82,1.37,1.51,0.614,4.21,0.576,2.78,0.351,0.98,70,3.83,64,4.04,70,65,1.33,0.4,83,PT,,,
players,Shaun,Livingston,PG,30,202.2,182,9,73,1.46,1.75,0.86,6.96,0.553,0.29,0.167,0.73,25,2.34,65,4.38,65,77,1.02,0.44,54,,,,
players,Leandro,Barbosa,PG,33,192.7,194,9,76,1.29,1.55,0.839,8.17,0.5,2.95,0.355,0.79,25,2.47,74,2.24,65,77,1.08,0.22,61,,,,
players,Brandon,Rush,SG,30,199.8,220,9,75,0.92,0.74,0.643,4.42,0.429,4.05,0.414,0.85,30,4.29,91,1.66,70,66,0.61,0.61,78,,,,
players,Anderson,Varejo,C,33,213,267,9,73,0.89,3.84,0.682,6.5,0.489,0.07,0.095,1.77,55,5.02,32,2.07,80,65,0.59,0.59,60,IH,,,
players,Marreese,Speights,C,28,209.5,255,9,61,2.01,3.57,0.825,8.98,0.444,1.27,0.387,2.4,20,5.01,26,1.69,60,66,0.56,1.09,44,,,,
players,James Michael,McAdoo,SF,23,205.5,240,9,44,1.51,4.53,0.531,6.54,0.55,0.47,0.286,2.09,19,2.52,55,1.42,70,76,0.7,0.7,62,,,,
players,Ian,Clark,SG,25,190.6,175,9,41,1.98,1.42,0.824,7.48,0.444,3.68,0.357,0.57,11,2.27,70,2.83,70,71,0.85,0.57,66,,,,
,,,,,,,,,,,,,,,,,,,,,,,,,,,,,
,,,,,,,,,,,,,,,,,,,,,,,,,,,,,
players,Dwight,Howard,C,30,212.6,264,10,81,2.34,6.83,0.489,8.56,0.619,0.1,0.086,3.46,68,8.56,58,1.43,98,63,1.02,1.63,75,,,,
players,Clint,Capela,PF,21,210.1,240,10,61,1.19,4.01,0.379,7.39,0.577,0.07,0.062,2.46,26,6.15,42,0.89,15,75,1.05,1.49,56,,,,
players,Trevor,Ariza,SF,30,204.9,220,10,86,1.4,2,0.783,4.4,0.477,6.2,0.371,0.8,57,3.7,82,2.3,70,68,2,0.3,94,,,,
players,James,Harden,SG,26,197.2,220,10,24,4.6,8.6,0.86,11.7,0.496,8,0.359,0.8,91,5.3,86,7.5,90,66,1.7,0.6,91,HH,,,
players,Patrick,Beverley,PG,27,185.5,185,10,92,1.43,1.32,0.682,4.84,0.475,4.84,0.4,1.1,37,2.75,75,3.74,75,67,1.43,0.44,80,PT,,,
players,Terrence,Jones,SF,24,207.8,252,10,62,1.39,3.19,0.664,8.52,0.491,2.22,0.316,1.66,41,4.16,60,1.11,32,66,0.69,1.11,70,,,,
players,Corey,Brewer,SF,30,207.2,184,10,80,1.41,2.4,0.75,6.76,0.475,3.81,0.272,0.91,41,3.16,73,2.2,70,65,1.52,0.39,71,,,,
players,Josh,Smith,PF,30,208.1,226,10,80,2.46,1.69,0.48,7.51,0.458,5.68,0.29,1.23,47,3.22,74,3.22,87,55,1.07,0.92,72,EX,,,
players,Michael,Beasley,SF,27,210.1,235,10,52,1.86,3.87,0.776,9.95,0.531,0.71,0.333,1.67,24,3.74,51,1.24,15,70,0.93,0.77,80,,,,
players,Montrezl,Harrell,PF,22,205.5,240,10,69,1.04,3.12,0.522,5.98,0.597,0.07,0.071,1.56,5,2.6,58,1.04,15,65,0.78,0.78,80,,,,
players,KJ,McDaniels,SF,23,200.2,200,10,71,1.89,3.02,0.8,6.46,0.5,2.64,0.28,1.51,22,2.64,68,1.13,45,70,0.75,0.75,70,,,,
players,Donatas,Motiejunas,PF,25,215.6,223,10,55,2.18,2.55,0.642,8.51,0.5,2.73,0.281,1.82,20,3.46,60,2,65,67,0.91,0.18,70,,,,
players,Andrew,Goudelock,SG,27,183,228,10,63,3.49,1.94,0.87,6.61,0.432,3.74,0.354,0.59,27,2.31,76,1.48,65,80,1.55,0.23,74,,,,
players,Jason,Terry,SG,38,188.1,181,10,65,1.11,0.8,0.828,4.67,0.5,5.73,0.356,0.77,42,2.51,74,2.41,80,65,1.14,0.19,77,,,,
,,,,,,,,,,,,,,,,,,,,,,,,,,,,,
,,,,,,,,,,,,,,,,,,,,,,,,,,,,,
players,Myles,Turner,C,20,211.2,244,11,65.3,1.43,2.6,0.727,11.22,0.5,0.26,0.214,1.43,33,5.71,44,0.91,83,71,0.52,1.82,59,R,,,
players,Ian,Mahinmi,C,29,211,255,11,71,1.67,3.82,0.587,7.51,0.587,0.07,0.095,2.27,29,6.2,34,1.79,60,62,1.07,1.31,70,,,,
players,Paul,George,SF,25,208,225,11,81,3.3,6.5,0.86,10.9,0.45,7,0.371,1,92,6,92,4.1,75,69,1.9,0.4,98,HH,,,
players,Monta,Ellis,SG,30,192,185,11,71,2.5,2.5,0.786,9.1,0.473,3.5,0.314,0.5,70,2.8,95,4.7,85,71,1.9,0.5,95,EX,,,
players,George,Hill,PG,29,192.1,193,11,73,1.4,2,0.76,5.8,0.466,4.2,0.408,0.8,53,3.2,83,3.5,70,66,1.1,0.2,81,PT,,,
players,CJ,Miles,SG,29,198.8,225,11,74,1.42,2.46,0.75,6.81,0.462,7.76,0.367,0.67,53,3.22,82,1.39,40,63,1.14,0.65,79,EX,,,
players,Jordan,Hill,C,28,210.1,235,11,71,1.81,2.37,0.712,10.47,0.507,0.07,0.195,2.93,34,5.58,38,1.68,30,64,0.7,0.7,58,PT,,,
players,Rodney,Stucky,SG,30,197.2,210,11,61,1.73,3.6,0.829,8.73,0.468,1.87,0.241,0.4,40,3.2,71,3.2,75,64,0.93,0.13,85,,,,
players,Lavoy,Allen,PF,27,207.1,260,11,73,1.28,1.28,0.63,6.69,0.511,0.07,0.119,2.99,39,4.69,46,1.42,65,65,0.43,0.71,85,,,,
players,Ty,Lawson,PG,28,180.5,195,11,62,1.55,0.77,0.76,5.45,0.439,1.44,0.357,0.77,31,2.94,73,5.81,75,65,1.05,0.13,53,,,,
players,Glenn,Robinson III,SG,22,198.8,222,11,60,0.91,2.05,0.692,6.95,0.423,1.82,0.378,0.68,13,2.74,82,1.37,40,63,0.91,0.46,60,,,,
players,Solomon,Hill,SF,25,202.7,225,11,61,1.1,1.28,0.857,5.1,0.545,2.38,0.324,1.28,27,4.03,51,1.83,33,68,1.1,0.37,67,,,,
players,Joe,Young,PG,23,188.2,180,11,43,2.14,1.6,0.8,7.86,0.433,2.47,0.217,0.27,6,2.94,71,4.28,75,71,0.96,0.13,65,,,,
,,,,,,,,,,,,,,,,,,,,,,,,,,,,,
,,,,,,,,,,,,,,,,,,,,,,,,,,,,,
players,Deandre,Jordan,C,27,213.1,265,12,88,1.4,8,0.43,6.6,0.685,0.07,0.062,3.5,70,10.3,38,1.2,81,68,0.7,2.3,86,SP,,,
players,Blake,Griffin,PF,27,210.7,251,12,76,2.4,5.5,0.727,16.7,0.503,0.5,0.29,1.5,88,6.9,64,4.9,90,73,0.8,0.5,82,SP,,,
players,Jeff,Green,SF,29,206.1,235,12,70,1.05,2.81,0.615,8.68,0.471,3.39,0.325,0.82,50,3.16,66,1.75,60,66,0.82,0.94,80,,,,
players,JJ,Redick,SG,31,194.5,190,12,81,1.12,3.02,0.888,7.49,0.475,6.27,0.475,0.11,56,1.9,75,1.57,65,68,0.67,0.11,88,,,,
players,Chris,Paul,PG,30,184.5,175,12,78,2.62,4.43,0.896,10.79,0.505,4.43,0.371,0.5,87,3.72,100,10.06,85,74,2.11,0.2,91,CG,,,
players,Jamal,Crawford,SG,36,197.7,195,12,72,1.61,3.91,0.904,9.3,0.44,5.07,0.34,0.35,53,1.84,81,2.65,75,67,0.81,0.23,88,EX,,,
players,Austin,Rivers,SG,23,194.7,200,12,49,1.17,2.28,0.681,7.54,0.51,3.76,0.335,0.45,30,2.27,65,2.01,80,60,0.97,0.16,72,PT,,,
players,Wesley,Johnson,SF,28,202.6,215,12,67,0.97,0.83,0.652,5,0.52,5.42,0.333,0.7,33,3.62,55,0.83,48,65,1.53,0.97,61,,,,
players,Cole,Aldrich,C,27,212.9,245,12,49,2.19,2.78,0.714,6.39,0.579,0.07,0.186,2.33,8,5.68,26,1.59,34,63,1.22,1.84,50,,,,
players,Paul,Pierce,SF,38,201.1,235,12,78,1.39,1.55,0.818,5.38,0.455,5.58,0.31,0.31,55,4.03,66,1.55,75,50,0.77,0.46,75,HF,,,
players,Luc,Mbah a Moute,SF,29,203.9,230,12,70,0.81,1.3,0.526,4.06,0.478,0.81,0.325,1.3,30,2.44,66,0.65,65,65,0.98,0.49,75,,,,
players,Pablo,Prigioni,PG,38,192.7,185,12,56,1.53,0.19,0.875,3.19,0.444,3.07,0.295,1.15,1,2.49,67,4.22,75,64,1.72,0.03,70,,,,
,,,,,,,,,,,,,,,,,,,,,,,,,,,,,
,,,,,,,,,,,,,,,,,,,,,,,,,,,,,
players,Roy,Hibbert,C,29,220.6,275,13,87,1.15,2.31,0.807,6.54,0.445,0.07,0.219,2.15,52,4.47,31,1.54,65,63,0.51,2.03,75,,,,
players,Julius,Randle,PF,21,207.8,250,13,72,2,3.67,0.715,11.07,0.434,0.45,0.278,2.34,60,9.02,49,2,71,70,0.78,0.45,70,SP,,,
players,Dangelo,Russell,SG,22,195.9,232,13,70.7,2.78,2.67,0.737,8.76,0.446,5.12,0.351,0.72,69.5,3.24,76,3.67,71,67.4,1.34,0.22,82,R,,,
players,Kobe,Bryant,SG,37,199.6,212,13,100,1.66,4.87,0.836,13.39,0.436,7.91,0.3,0.97,100,3.93,86,3.76,100,70,1.54,0.54,89,HF,,,
players,Jordan,Clarkson,PG,23,197.6,185,13,75,1.72,2.64,0.804,10,0.469,4.16,0.347,1.27,65,2.96,84,2.62,66,72,1.14,0.13,79,SP,,,
players,Louis,Williams,PG,29,187.5,175,13,55,1.77,6.96,0.83,6.58,0.473,5.31,0.344,0.55,43,2.32,80,2.76,75,61,0.99,0.33,83,,,,
players,Brandon,Bass,PF,30,203.9,250,13,77,0.85,3.12,0.845,6.8,0.542,0.07,0.229,2.72,26,5.39,38,1.83,60,67,0.82,1.24,62,,,,
players,Larry,Nance Jr,PF,23,206.1,230,13,63,1,1,0.681,6.65,0.543,0.29,0.148,2.38,22,4.95,43,1,60,71,1.29,0.57,66,,,,
players,Nick,Young,SF,30,202.5,210,13,78,0.89,2.08,0.829,6.85,0.394,6.53,0.335,0.6,58,2.59,84,0.89,70,65,0.81,0.18,83,,,,
players,Marcelo,Huertas,PG,32,201.1,200,13,55,2.51,0.84,0.931,6,0.491,2.01,0.281,0.6,40,2.58,72,6.52,75,72,0.92,0.22,83,,,,
players,Anthony,Brown,SF,23,207.8,210,13,85,0.7,0.98,0.85,4.29,0.316,3.5,0.286,0.52,36,3.18,76,1.16,70,65,0.75,0.33,76,,,,
players,Tarik,Black,C,24,207.8,250,13,52,1.24,2.48,0.422,5.58,0.556,0.07,0.057,2.62,8,6.71,30,0.83,75,65,0.88,1.09,50,,,,
players,Ryan,Kelly,PF,24,214.5,230,13,61,1.01,3.02,0.685,7.25,0.452,2.01,0.135,1.21,16,5.64,32,1.21,60,59,0.81,0.6,45,,,,
players,Robert,Sacre,C,26,214.5,270,13,57,1.03,3.08,0.658,6.16,0.414,0.07,0.143,2.92,8,4.72,27,1.23,75,59,0.41,0.82,51,,,,
players,Metta,World Peace,SF,36,207.8,260,13,73,0.65,2.62,0.702,5.94,0.333,3.92,0.31,0.82,26,3.27,42,1.31,70,38,0.98,0.49,56,,,,
,,,,,,,,,,,,,,,,,,,,,,,,,,,,,
,,,,,,,,,,,,,,,,,,,,,,,,,,,,,
players,Marc,Gasol,C,31,217.6,265,14,92,2.3,4.7,0.829,13.5,0.467,0.1,0.186,1.1,65,5.8,54,3.8,75,72,1,1.3,85,IH,,,
players,Zach,Randolph,PF,34,206.1,260,14,76,1.61,3.44,0.796,13.89,0.481,0.43,0.231,2.79,65,5.48,33,2.26,80,66,0.64,0.21,80,HH,,,
players,Matt,Barnes,SF,36,201.5,226,14,81,1.76,1.97,0.804,5.08,0.452,5.38,0.322,1.21,41,4.83,65,2.3,80,60,1.1,0.88,75,,,,
players,Lance,Stephenson,SG,25,197.1,228,14,82,2.09,3.6,0.815,12.49,0.491,1.39,0.355,0.93,45,4.18,61,3.25,75,74,0.81,0.23,70,,,,
players,Mike,Conley,PG,28,186.5,175,14,99,1.55,4.24,0.834,9.02,0.453,3.93,0.363,0.52,74,2.58,96,6.31,70,65,1.24,0.31,92,HH,,,
players,Tony,Allen,SG,34,194.7,213,14,97,1.44,2.65,0.652,8.08,0.485,0.84,0.357,1.92,38,3.61,67,1.32,80,70,2.04,0.36,68,PT,,,
players,Jordan,Farmar,PG,29,190,180,14,52,1.86,0.99,0.86,5.81,0.489,4.44,0.356,0.37,39,2.23,60,4.21,75,64,1.61,0.25,64,,,,
players,Jamychal,Green,PF,25,209.5,227,14,47,1.67,2.74,0.752,8.99,0.474,0.91,0.333,2.34,19,3.73,29,1.37,65,61,0.89,0.58,64,,,,
players,Vince,Carter,SF,39,199.1,220,14,81,0.99,2.3,0.833,6.56,0.414,4.6,0.349,0.82,53,3.12,79,1.48,92,60,0.99,0.49,75,,,,
players,Ray,McCollum,PG,24,190.6,190,14,50,1.74,0.67,0.6,7.97,0.34,3.48,0.385,0.27,27,1.87,75,3.61,55,55,0.94,0.4,59,,,,
players,Brandan,Wright,PF,28,209.5,240,14,47,1.26,3.15,0.542,6.78,0.674,0.07,0.071,1.89,19,3.78,2,0.79,65,61,0.63,2.05,75,,,,
players,Beno,Udrih,PG,33,191.6,205,14,51,2.52,0.72,0.85,9.04,0.455,2.52,0.364,0.54,30,1.62,60,5.94,50,52,0.72,0.18,58,,,,
players,PJ,Hairston,SG,23,200.2,232,14,59,1.25,1.66,0.727,6.32,0.486,5.27,0.232,0.55,15,3.05,56,0.69,64,69,0.55,0.28,65,,,,
,,,,,,,,,,,,,,,,,,,,,,,,,,,,,
,,,,,,,,,,,,,,,,,,,,,,,,,,,,,
players,Hassan,Whiteside,C,26,214.9,235,15,86,2.07,4.9,0.65,10.13,0.613,0.07,0.143,3.59,58,9.37,47,0.44,55,64,0.65,4.03,68,,,,
players,Chris,Bosh,PF,32,212.2,235,15,79,1.5,5.1,0.795,10.3,0.515,4.2,0.365,0.9,68,6.5,83,2.4,90,68,0.7,0.6,87,HH,,,
players,Loul,Deng,SF,31,206.5,220,15,92,1.11,2.63,0.755,6.72,0.515,3.54,0.344,1.52,55,4.56,76,1.92,65,61,1.01,0.4,96,,,,
players,Dwyane,Wade,SG,34,193.5,220,15,97,2.85,5.8,0.793,16.27,0.468,0.63,0.159,1.16,90,3.16,87,4.85,94,75,1.16,0.63,88,HF,,,
players,Goran,Dragic,PG,29,191.1,190,15,78,2.61,2.31,0.727,9.45,0.521,2.81,0.312,0.8,58,3.11,68,5.82,70,65,1,0.2,85,CG,,,
players,Joe,Johnson,SF,34,202.9,240,15,86,1.83,1.43,0.765,7.2,0.557,3.57,0.417,0.86,57,2.84,74,3.76,75,70,1,0.16,83,,,,
players,Tyler,Johnson,SF,23,202.9,186,15,71,1.63,2.25,0.797,6.5,0.521,2.5,0.38,1,27,2.88,58,2.75,75,71,0.88,0.5,59,,,,
players,Justise,Winslow,SF,20,201.5,225,15,68,1.32,1.65,0.684,5.01,0.477,1.65,0.276,1.1,28,4.52,58,1.65,71,73.2,0.99,0.33,64,R,,,
players,Josh,Richardson,SG,22,197.7,200,15,60,0.96,1.64,0.697,4.9,0.467,3.01,0.461,0.55,25,2.32,71,1.91,94,70,0.96,0.68,74,R,,,
players,Gerald,Green,SF,30,205.6,205,15,65,0.91,1.7,0.783,7.31,0.447,4.97,0.323,0.52,51,2.61,91,1.05,80,64,0.78,0.39,83,,,,
players,Josh,McRoberts,PF,29,210.2,240,15,72,1.32,1.88,0.7,5.39,0.435,2.26,0.245,0.94,27,3.77,56,3.58,75,68,0.75,0.38,83,,,,
players,Amare,Stoudemire,PF,33,210.1,237,15,60,1.65,2.38,0.746,7.87,0.558,0.07,0.224,2.38,38,5.49,30,0.91,80,50,0.55,1.46,38,,,,
players,Udonis,Haslem,PF,35,204.9,235,15,81,0.35,1.39,0.786,5.36,0.429,0.7,0.111,1.04,34,6.26,39,1.39,70,59,0.35,0.35,54,,,,
,,,,,,,,,,,,,,,,,,,,,,,,,,,,,
,,,,,,,,,,,,,,,,,,,,,,,,,,,,,
players,Greg,Monroe,C,25,212.8,250,16,79,1.73,4.23,0.74,12.9,0.521,0.07,0.171,3.04,76,6.61,58,2.49,65,71,0.98,0.87,68,,,,
players,Jabari,Parker,PF,21,204,240,16,77,1.54,3.08,0.768,11.62,0.504,0.51,0.257,1.64,49,3.7,58,1.75,74,77,0.92,0.41,77,,,,
players,Giannis,Antetokounmpo,SF,21,211.6,217,16,71,2.6,5.1,0.724,11.3,0.531,1.4,0.257,1.4,64,6.2,76,4.3,74,70,1.2,1.4,79,,,,
players,OJ,Mayo,SG,28,197.7,200,16,76,2.09,1.16,0.775,5.05,0.421,4.64,0.321,0.45,57,2.79,89,3.46,75,67,1.42,0.26,87,EX,,,
players,Michael,Carter-Williams,PG,24,197.7,185,16,75,2.95,3.16,0.663,9.86,0.462,1.05,0.273,0.95,64,4.43,80,5.48,80,68,1.58,0.84,82,HH,,,
players,Chris,Middleton,SF,24,203.2,225,16,50,2.3,3.9,0.888,9.9,0.465,4.6,0.396,0.6,54,3.3,65,4.2,60,65,1.7,0.2,78,,,,
players,Jerryd,Bayless,PG,27,191.2,200,16,74,1.53,1.86,0.778,4.79,0.425,4.82,0.437,0.54,38,2.76,82,3.67,70,62,0.99,0.22,87,,,,
players,John,Henson,PF,25,212.1,230,16,74,1.81,3.45,0.59,8.38,0.569,0.07,0.076,2.21,31,3.94,30,0.93,70,71,0.49,2.67,43,,,,
players,Miles,Plumlee,C,27,213,249,16,61,1.31,1.87,0.576,7.11,0.605,0.07,0.086,3.16,21,5.27,25,0.56,65,71,0.61,1.58,55,,,,
players,Tyler,Ennis,PG,21,191.1,194,16,57,1.88,1.32,0.735,6.92,0.455,1.51,0.333,0.56,12,2.45,64,3.95,80,66,0.94,0,63,,,,
players,Greivis,Vasquez,PG,29,198.3,200,16,70,2.44,1.58,0.846,5.4,0.429,4.59,0.247,0.29,33,2.58,80,5.73,80,66,0.57,0,72,,,,
players,Johnny,O'Bryant III,PF,22,205.1,257,16,71,1.01,1.22,0.684,6.48,0.406,0.4,0.271,2.03,6,3.44,55,1.01,65,70,0.61,0.2,64,,,,
players,Jared,Cunningham,SG,24,195.1,195,16,42,1.55,3.49,0.857,4.99,0.294,3.49,0.286,0.1,6,4.46,77,0.58,75,63,0.97,0,66,,,,
players,Steve,Novak,SF,33,206.5,208,16,70,0.25,0.69,0.846,2.67,0.475,5.94,0.375,1.01,27,3.05,54,0.69,65,64,0.48,0.32,52,,,,
,,,,,,,,,,,,,,,,,,,,,,,,,,,,,
,,,,,,,,,,,,,,,,,,,,,,,,,,,,,
players,Karl-Anthony,Towns,C,20,212,242,17,81.7,2.25,3.47,0.811,13.29,0.554,1.12,0.341,2.86,72,7.86,68,2.04,60,77.6,0.71,1.74,85,R,,,
players,Gorgui,Dieng,C,26,212.9,235,17,66,1.95,3.44,0.827,7.93,0.536,0.23,0.276,2.18,32,5.95,55,1.95,45,67,1.26,1.37,74,,,,
players,Andrew,Wiggins,SF,21,205.1,200,17,74,2.2,7,0.761,13.7,0.482,2.3,0.3,1.3,72,2.3,88,2,60,74,1,0.6,90,SP,,,
players,Zach,Lavine,PG,21,197.6,183,17,64,2.13,2.8,0.793,9.19,0.487,4.36,0.389,0.34,69,2.8,92,3.47,82,76,0.9,0.22,78,SP,,,
players,Ricky,Rubio,PG,25,195.1,192,17,70,2.63,4.31,0.847,5.6,0.404,2.63,0.326,0.53,70,4,91,9.05,85,68,2.21,0.11,89,CG,,,
players,Tyus,Jones,PG,19,188.8,195,17,55,1.58,1.93,0.718,5.96,0.393,2.45,0.302,0.35,42,1.93,74,5.82,82,65,1.4,0.18,73,,,,
players,Shabazz,Muhammad,SG,23,199.2,227,17,56,1.27,4.22,0.764,9.77,0.531,2.67,0.289,1.69,34,2.81,70,0.94,55,71,0.45,0.17,73,,,,
players,Nikola,Pekovic,C,30,211.5,295,17,75,1.62,3.44,0.8,8.51,0.381,0.07,0.081,2.42,26,6.15,27,1.09,60,63,0.18,0.37,47,,,,
players,Kevin,Garnett,PF,39,212.5,252,17,56,0.74,1.1,0.667,5.52,0.467,0.2,0.181,0.74,48,6.62,27,2.94,90,59,1.29,0.55,41,HF,,,
players,Nemanja,Bjelica,PF,27,210.5,240,17,41,1.25,1.41,0.727,3.99,0.556,3.28,0.384,1.3,25,4.34,42,2.19,90,67,0.62,0.62,52,,,,
players,Adreian,Payne,PF,25,210.5,237,17,54,1.89,1.35,0.654,6.96,0.391,1.62,0.281,1.08,6,4.86,42,1.62,90,61,0.81,0.54,46,,,,
players,Tayshaun,Prince,SF,36,206.5,215,17,69,0.6,0.3,0.684,4.17,0.444,0.45,0.174,0.6,31,2.24,53,1.49,65,58,0.75,0.3,66,,,,
,,,,,,,,,,,,,,,,,,,,,,,,,,,,,
,,,,,,,,,,,,,,,,,,,,,,,,,,,,,
players,Anthony,Davis,C,23,210.5,220,18,93,2,7,0.758,16.8,0.512,1.8,0.324,2.1,90,8.1,57,1.9,80,74,1.3,2,73,HH,,,
players,Ryan,Anderson,PF,27,209.5,240,18,72,1.48,3.7,0.873,9.5,0.46,5.71,0.366,2.11,40,4.23,48,1.16,75,66,0.63,0.42,68,,,,
players,Tyreke,Evans,SF,26,198.5,222,18,84,3.05,3.89,0.796,9.86,0.446,3.58,0.388,0.84,61,4.63,68,6.95,80,70,1.37,0.32,80,SP,,,
players,Eric,Gordon,SG,27,194.5,215,18,73,1.6,2.81,0.888,5.82,0.448,6.51,0.384,0.2,57,2,76,2.71,80,65,1,0.3,85,PT,,,
players,Jrue,Holiday,PG,25,195.1,205,18,73,2.9,3.67,0.843,12.03,0.481,4.45,0.336,0.45,65,2.9,86,6.68,75,70,1.56,0.33,87,,,,
players,Norris,Cole,PG,27,190.1,175,18,85,1.97,1.62,0.8,10.23,0.435,2.67,0.324,0.23,24,3.6,70,4.29,80,78,0.93,0.12,82,,,,
players,Toney,Douglas,PG,30,188.2,190,18,55,1.4,2.23,0.848,6.89,0.425,4.61,0.399,0.56,25,2.65,55,3.63,55,55,1.54,0.14,75,,,,
players,Alexis,Anjica,C,27,219.7,248,18,68,1.66,2.02,0.839,9.75,0.472,0.07,0.233,2.39,19,6.07,32,0.92,64,70,0.55,1.1,52,,,,
players,Dante,Cunningham,SF,29,208,235,18,82,0.61,1.23,0.695,4.18,0.533,2.7,0.316,0.96,39,2.94,75,1.41,65,62,0.67,0.54,83,,,,
players,Alonzo,Gee,SF,28,199.1,219,18,80,1.05,1.18,0.667,3.8,0.593,1.05,0.283,1.2,39,3.65,62,1.32,70,60,1.29,0.26,79,,,,
players,Luke,Babbitt,SF,26,210.5,225,18,55,0.78,1.71,0.78,7.19,0.447,3.58,0.404,0.78,34,4.16,60,1.71,65,62,0.5,0.16,68,,,,
players,Omer,Asik,C,29,214.6,255,18,80,1.44,2.57,0.545,4.65,0.517,0.07,0.071,2.89,27,6.9,35,0.64,64,70,0.48,0.48,65,,,,
players,Quincy,Pondexter,SF,28,203,220,18,61,0.97,1.61,0.623,6.05,0.491,2.42,0.349,0.81,16,4.98,58,1.42,95,65,0.81,0.19,60,,,,
players,Kendrick,Perkins,SF,36,210.8,275,18,83,2.02,1.29,0.44,3.68,0.55,0.07,0.052,1.29,13,5.15,52,1.47,65,52,0.55,0.55,70,,,,
,,,,,,,,,,,,,,,,,,,,,,,,,,,,,
,,,,,,,,,,,,,,,,,,,,,,,,,,,,,
players,Robin,Lopez,C,28,215,265,19,77,1.83,2.29,0.795,9.28,0.543,0.07,0.224,3.78,51,4.7,53,1.6,70,70,0.23,1.83,73,,,,
players,Kristaps,Porzingis,PF,20,215,240,19,71,1.88,3.66,0.838,10.23,0.461,3.77,0.333,1.99,73,6.09,48,1.44,70,77,0.78,2.11,74,R,,,
players,Carmelo,Anthony,SF,31,204,240,19,64,2.4,5.6,0.829,13.9,0.46,4.3,0.339,1.4,80,6.4,70,4.2,95,74,0.9,0.5,82,HH,,,
players,Arron,Afflalo,SG,30,197.5,215,19,78,1.2,1.8,0.84,7.9,0.468,3.4,0.382,0.3,44,3.4,77,2,70,68,0.4,0.1,89,EX,,,
players,Jose,Calderon,PG,34,192.2,210,19,68,1.34,0.78,0.875,4.23,0.486,3.13,0.414,0.39,52,3.36,78,5.49,70,66,1.03,0.14,86,CG,,,
players,Derrick,Williams,PF,24,203.9,240,19,60,1.25,5,0.758,9.19,0.5,2.97,0.293,0.94,32,4.84,54,1.41,65,66,0.62,0.16,60,,,,
players,Langston,Galloway,PG,24,190,202,19,44,0.85,1.71,0.754,6.09,0.422,3.3,0.344,0.61,35,3.66,60,3.05,67,67,1.1,0.37,70,,,,
players,Jerian,Grant,PG,23,193.7,204,19,51,1.82,2.65,0.78,7.16,0.447,2.16,0.22,0.5,23.5,2.65,61,3.81,53,63.4,1.16,0.17,61,,,,
players,Lance,Thomas,SF,28,205.2,225,19,74,1.25,2.64,0.857,7.11,0.468,2.51,0.404,0.99,29,2.59,66,1.37,56,67,0.63,0.19,86,,,,
players,Sasha,Vujacic,SG,32,203,195,19,68,1.27,1.09,0.821,5.84,0.364,4.16,0.364,0.72,34,3.62,78,2.53,70,65,1.09,0.18,80,,,,
players,Kevin,Seraphin,PF,26,207,275,19,56,2.1,1.17,0.826,10.03,0.419,0.07,0.171,1.4,24,4.67,19,2.33,75,66,0.47,1.87,65,,,,
players,Kyle,OQuinn,C,26,210.5,250,19,44,1.98,1.98,0.767,8.93,0.487,0.66,0.227,2.14,24,4.49,34,1.96,70,71,0.58,1.44,50,,,,
players,Cleanthony,Early,SF,25,205.2,219,19,66,1.39,0.56,0.75,5.77,0.333,2.5,0.267,0.56,17,3.61,61,1.11,33,67,0.28,0.56,70,,,,
players,Lou,Amundson,PF,33,207.1,225,19,44,1.74,3.13,0.519,6.26,0.389,0.07,0.081,2.78,9,3.13,18,1.39,65,47,0.7,0.7,38,,,,
,,,,,,,,,,,,,,,,,,,,,,,,,,,,,
,,,,,,,,,,,,,,,,,,,,,,,,,,,,,
players,Enes,Kanter,C,23,212.5,245,20,61,1.93,4.28,0.797,11.85,0.576,0.41,0.371,4.14,32,7.04,31,0.55,70,70,0.41,0.55,51,,,,
players,Serge,Ibaka,PF,27,208.5,245,20,91,1.43,1.63,0.752,8.91,0.517,2.44,0.326,1.83,54,5.09,38,0.81,65,65,0.51,1.94,74,IH,,,
players,Kevin,Durant,SF,27,207.2,240,20,79,3.5,6.9,0.898,12.5,0.568,6.7,0.387,0.6,97,7.6,83,5,97,68,1,1.2,82,HH,,,
players,Dion,Waiters,SG,24,195.1,225,20,61,1.7,2.26,0.713,7.19,0.417,3.5,0.358,0.57,44,2.37,81,2.26,80,67,1.13,0.23,73,,,,
players,Russell,Westbrook,PG,27,192.6,200,20,88,4.3,7.2,0.812,13.8,0.5,4.3,0.296,1.8,97,6,100,10.4,100,68,2,0.3,98,HH,,,
players,Steven,Adams,C,22,215.6,255,20,71,1.33,3.02,0.582,6.39,0.623,0.07,0.133,3.26,48,4.7,38,0.97,66,68,0.6,1.33,63,,,,
players,Cameron,Payne,PG,21,190,185,20,60,1.71,0.85,0.792,7.74,0.467,3.73,0.324,0.43,8,2.78,70,4.06,65,85,1.28,0.21,65,,,,
players,Andre,Roberson,SG,24,200,210,20,62,0.66,1.06,0.611,3.66,0.583,1.99,0.311,1.46,38,3.31,60,0.93,70,67,1.06,0.79,71,,,,
players,Randy,Foye,SG,32,193.6,215,20,80,1.37,1.37,0.815,4.54,0.4,4.11,0.309,0.46,38,2.31,60,2.56,70,67,0.71,0.71,83,,,,
players,Anthony,Morrow,SG,30,195.1,210,20,62,0.59,1.17,0.744,6.56,0.421,5.85,0.387,0.2,38,1.56,60,0.78,70,67,0.59,0.2,71,,,,
players,Kyle,Singler,SF,27,205.5,228,20,52,0.93,1.12,0.659,4.74,0.474,2.61,0.309,1.3,33,2.42,69,0.74,65,63,0.74,0.19,70,,,,
players,Nick,Collison,PF,35,209.6,255,20,71,1.75,1.31,0.697,3.93,0.444,0.07,0.21,2.62,21,3.71,39,1.96,65,60,0.65,0.65,75,,,,
,,,,,,,,,,,,,,,,,,,,,,,,,,,,,
,,,,,,,,,,,,,,,,,,,,,,,,,,,,,
players,Nikola,Vucevic,C,25,215.6,260,21,71,1.97,2.38,0.753,16.58,0.512,0.1,0.222,2.8,65,6.42,38,2.9,60,70,0.83,1.14,82,IH,,,
players,Aaron,Gordon,PF,20,208,220,21,61,1,3.13,0.668,7.48,0.536,2.26,0.296,2.51,78,5.64,65,2.01,70,70,1,0.88,61,SP,,,
players,Evan,Fournier,SG,23,201.8,205,21,63,1.72,3.03,0.836,7.02,0.493,4.95,0.4,0.4,41,2.42,58,2.73,60,65,1.21,0,74,,,,
players,Victor,Oladipo,SG,23,193.7,210,21,83,2.1,3.4,0.83,9.6,0.469,3.9,0.348,0.7,71,4.1,89,3.9,75,70,1.6,0.8,88,HH,,,
players,Elfrid,Payton,PG,22,194.2,185,21,60,2.6,2.81,0.589,9.52,0.46,1.41,0.326,1.19,51,2.7,85,6.92,65,66,1.3,0.32,76,,,,
players,Brandon,Jennings,PG,26,187.5,169,21,51,2.17,2.48,0.82,6.81,0.401,4.8,0.36,0.62,36,2.48,72,6.2,88,75,1.08,0.31,61,EX,,,
players,Ersan,Ilyasova,PF,28,210.2,235,21,68,0.71,2.83,0.711,7.92,0.42,2.83,0.409,2.78,34,5.08,38,0.8,65,65,0.9,0.5,58,IH,,,
players,Mario,Hezonja,SG,20,205.2,198,21,73,1.87,1.09,0.907,5.88,0.517,3.75,0.349,0.62,21.5,2.97,60,2.19,63,73.6,0.78,0.31,68,R,,,
players,CJ,Watson,PG,32,188.1,175,21,84,1.15,1.73,0.872,4.54,0.37,2.16,0.292,0.43,41,2.45,80,3.88,65,55,0.86,0.29,85,,,,
players,Jason,Smith,PF,30,214.6,240,21,55,1.4,1.58,0.806,11.37,0.484,0.35,0.25,1.23,34,3.86,37,1.4,65,63,0.7,1.5,49,,,,
players,Devyn,Marble,SF,24,200,200,21,70,0.84,2.52,0.417,5.91,0.357,3.09,0.25,0.56,4,3.09,66,1.12,64,69,1.4,0,76,,,,
players,Andrew,Nicholson,PF,26,208,250,21,61,1.28,2.2,0.785,8.06,0.543,3.66,0.36,1.1,20,5.49,38,0.73,70,65,0.37,0.73,61,,,,
players,Dewayne,Dedmon,C,26,215.6,245,21,72,1.28,2.78,0.75,6.62,0.548,0.07,0.233,2.01,9,4.78,33,0.43,60,80,0.72,1.55,45,,,,
,,,,,,,,,,,,,,,,,,,,,,,,,,,,,
,,,,,,,,,,,,,,,,,,,,,,,,,,,,,
players,Jahlil,Okafor,C,21,211.1,272,22,75,3.3,5,0.52,11,0.501,0,0.138,1.83,59.5,7.98,58,1.67,8,72,0.85,1.37,65,R,,,
players,Nerlens,Noels,PF,22,208.9,228,22,83,1.38,1.72,0.693,9.32,0.488,0.33,0.19,3.24,61,9.27,55,2.13,84,70,0.94,1.86,46,,,,
players,Jerami,Grant,SF,22,205.2,210,22,68,1.36,2.14,0.725,6.49,0.467,2.41,0.318,0.91,62,5.17,60,1.98,64,69,0.87,0.79,70,,,,
players,Isaiah,Canaan,PG,24,183.1,201,22,64,2.14,2.47,0.835,6.65,0.488,2.68,0.327,0.46,68,2.17,72,7.12,57,69,1.08,0.23,73,,,,
players,TJ,McConnell,PG,24,188.2,200,22,64,2.14,2.47,0.835,6.65,0.488,2.68,0.327,0.46,68,2.17,72,7.12,57,69,1.08,0.23,73,R,,,
players,Embiid,Embiid,C,22,214,250,22,67,0.63,1.22,0.611,11.92,0.458,0.8,0.1,2.61,58,7.41,9,1.84,45,71,0.37,1.5,75,,,,
players,Kendall,Marshall,PG,24,193.3,200,22,64,2.14,2.47,0.835,6.65,0.488,2.68,0.327,0.46,68,2.17,72,7.12,57,69,1.08,0.23,73,,,,
players,Ish,Smith,PG,27,182.4,175,22,64,2.14,2.47,0.835,6.65,0.488,2.68,0.327,0.46,68,2.17,72,7.12,57,69,1.08,0.23,73,,,,
players,Richaun,Holmes,PF,22,208.6,245,22,72,1.98,5.56,0.799,7.82,0.494,0.09,0.1,2.73,60,6.45,36,1.12,65,65,0.37,0.37,80,,,,
players,Robert,Covington,SF,25,207.8,215,22,66,1,2.47,0.835,6.99,0.481,5.01,0.365,0.81,37,4.69,69,1.8,35,66,0.79,0.47,70,,,,
players,Hollis,Thompson,SF,25,205.2,204,22,72,1.64,2.47,0.735,6.65,0.474,2.21,0.332,1.21,35,4.93,68,1.89,61,68,0.84,0.87,74,,,,
players,Carl,Landry,PF,32,206.2,248,22,72,1.98,5.56,0.799,7.82,0.494,0.09,0.1,2.73,60,6.45,36,1.12,65,65,0.37,0.37,80,,,,
players,Nik,Stauskas,SG,22,200.2,205,22,51,2.4,2.47,0.745,7,0.41,3.5,0.34,0.46,27,2.17,80,2.72,45,67,0.76,0.28,70,,,,
players,Elton,Brand,C,37,210.2,249,22,75,1.15,2.09,0.535,6.75,0.453,0.05,0.119,1.27,20,5.49,38,1.49,70,51,1.05,1.67,38,,,,
,,,,,,,,,,,,,,,,,,,,,,,,,,,,,
,,,,,,,,,,,,,,,,,,,,,,,,,,,,,
players,Tyson,Chandler,C,33,215,243,23,92,1.72,3.2,0.62,6.74,0.583,0.07,0.129,3.37,48,7.63,48,1.32,75,60,0.64,0.94,68,,,,
players,TJ,Warren,PF,22,205.2,230,23,50,0.91,1.82,0.703,10.7,0.519,1.95,0.4,1.56,17,2.47,55,1.17,45,66,1.04,0.39,70,,,,
players,PJ,Tucker,SF,30,200.4,260,23,80,1.46,1.77,0.746,5.57,0.457,2.87,0.33,2.14,43,4.74,71,2.57,50,65,1.44,0.29,88,,,,
players,Brandon,Knight,SG,24,191.6,189,23,81,3.4,3.5,0.852,10.4,0.462,6.8,0.342,0.7,56,3.2,91,5.1,75,67,1.2,0.4,85,,,,
players,Eric,Bledsoe,PG,26,187.5,190,23,72,3.5,5.5,0.802,11.7,0.487,4.2,0.372,0.6,75,3.5,97,6.1,75,69,2,0.6,89,SP,,,
players,Devin,Booker,SG,19,199,206,23,66,2.37,3.83,0.84,9.05,0.461,4.28,0.343,0.45,37,2.37,80,2.93,41,80.2,0.68,0.34,85,R,,,
players,Alex,Len,C,22,216.1,260,23,63,2.43,3.96,0.728,10.12,0.43,0.13,0.143,2.94,18,6.77,27,1.53,55,67,0.64,1.02,65,,,,
players,Mirza,Teletovic,PF,30,204.5,242,23,70,1.5,2.73,0.774,7.59,0.475,7.92,0.393,1.36,34,4.96,55,1.5,50,51,0.76,0.6,70,IH,,,
players,Jon,Leuer,PF,26,210,228,23,50,1.66,2.26,0.762,8.97,0.5,2.42,0.382,1.66,15,6.64,45,1.66,40,60,0.91,0.6,58,,,,
players,Archie,Goodwin,SG,21,197.6,200,23,51,2.63,4.97,0.674,9.12,0.474,2.48,0.232,0.73,11,2.92,70,3.07,54,75,0.7,0.27,70,,,,
players,Ronnie,Price,PG,32,188.1,190,23,64,1.61,1.02,0.756,3.96,0.471,4.68,0.347,0.58,68,1.75,72,3.51,57,69,1.75,0.29,73,,,,
players,Chase,Budinger,SF,27,202.6,208,23,46,1.76,1.1,0.625,4.71,0.75,2.2,0.235,1.54,37,2.2,55,1.98,75,65,0.44,0.22,75,,,,
players,John,Jenkins,SG,25,197,221,23,37,1.42,1.42,0.8,6.81,0.5,3.04,0.406,0.41,16,2.84,45,2.43,65,75,0.41,0,56,,,,
,,,,,,,,,,,,,,,,,,,,,,,,,,,,,
,,,,,,,,,,,,,,,,,,,,,,,,,,,,,
players,Mason,Plumlee,C,26,213,235,24,58,2.28,4.92,0.642,7.56,0.524,0,0,3,35,6.24,18,3.36,65,71,0.96,1.2,55,,,,
players,Ed,Davis,PF,26,210.1,240,24,72,1.11,3.48,0.559,5.84,0.595,0,0,3.89,29,6.4,21,1.53,60,68,0.97,1.25,70,,,,
players,Al-Faruq,Aminu,SF,25,205.5,215,24,68,1.66,2.1,0.737,5.43,0.467,4.75,0.361,1.33,48,5.42,60,1.88,65,64,0.99,0.66,84,,,,
players,CJ,McCollum,PG,24,190.6,200,24,57,2.5,2.8,0.827,12,0.458,5.9,0.417,0.6,64,2.7,85,4.3,55,72,1.2,0.3,86,SP,,,
players,Damian,Lillard,PG,24,192.6,195,24,75,3.2,6.2,0.892,11.6,0.44,8.1,0.375,0.6,82,3.4,96,6.8,80,73,0.9,0.4,91,HH,,,
players,Allen,Crabbe,PG,24,197.2,210,24,58,0.94,1.65,0.867,6.41,0.49,4.13,0.393,0.4,44,2.83,77,1.51,70,58,0.97,0.26,83,,,,
players,Gerald,Henderson,SG,28,195.6,216,24,72,1.29,2.88,0.767,8.6,0.463,2.73,0.353,0.58,36,3.6,58,1.44,70,63,0.72,0.43,76,,,,
players,Maurice,Harkless,SF,22,206.5,215,24,50,1.21,2.11,0.622,6.2,0.571,2.72,0.279,1.96,16,3.47,60,1.36,70,74,0.91,0.6,61,,,,
players,Meyers,Leonard,C,24,217.6,255,24,63,1.75,1.07,0.761,5.83,0.529,4.97,0.377,1.07,34,5.77,27,2.01,65,69,0.13,0.4,79,,,,
players,Noah,Vonleh,PF,20,208.6,242,24,49,1.08,1.26,0.745,5.88,0.467,1.08,0.239,2.16,15,4.86,50,0.72,45,65,0.54,0.54,55,,,,
players,Chris,Kaman,C,33,214.5,265,24,79,1.74,0.7,0.76,9.09,0.5,1.04,0.25,1.79,26,4.9,15,2.43,65,60,0.35,0.35,82,,,,
players,Brian,Roberts,PG,30,186.1,173,24,52,1.12,1.86,0.8,8.22,0.471,2.6,0.4,0.37,7,1.86,48,2.97,70,54,0.37,0,59,,,,
,,,,,,,,,,,,,,,,,,,,,,,,,,,,,
,,,,,,,,,,,,,,,,,,,,,,,,,,,,,
players,Demarcus,Cousins,C,24,213,270,25,86,3.8,10.2,0.718,17.3,0.468,3.2,0.333,2.4,83,9.1,38,3.3,55,66,1.6,1.4,71,HH,,,
players,Omri,Casspi,PF,27,208.2,225,25,68,1.59,2.62,0.648,6.25,0.54,4.56,0.409,0.91,40,5.81,75,1.59,70,64,0.91,0.23,80,IH,,,
players,Rudy,Gay,SF,29,204.5,230,25,80,2,3.6,0.78,11.3,0.496,3.1,0.344,1.5,70,5,90,1.7,80,72,1.4,0.7,86,SP,,,
players,Seth,Curry,SG,25,189,185,25,73,1.39,2.08,0.833,6.35,0.462,4.34,0.45,0.35,53,2.08,66,2.6,70,65,0.87,0.17,81,,,,
players,Rajon,Rondo,PG,29,186.5,186,25,98,3.9,2.1,0.58,8.5,0.471,2.4,0.365,1.1,81,5,98,11.7,85,76,2,0.1,97,CG,,,
players,Willie,Cauley-Stein,C,21,214.2,243,25,77,0.95,2.59,0.648,6.94,0.569,0,0,2.72,51,4.49,65,0.82,58,62.8,0.95,1.36,69,R,,,
players,Darren,Collinson,PG,28,184.9,175,25,71,1.92,3.31,0.858,8.3,0.513,3.09,0.401,0.43,46,2.03,68,4.59,65,66,1.07,0.11,83,,,,
players,Marco,Belinelli,SG,29,197.1,215,25,87,1.47,2.46,0.833,7.02,0.469,5.4,0.306,0.37,43,2.32,66,2.7,70,65,0.72,0.16,81,,,,
players,Ben,McLemore,SG,23,196.7,195,25,71,2.06,2.06,0.718,6.49,0.475,3.7,0.362,0.69,40,2.33,70,1.65,80,75,1.1,0.14,80,,,,
players,Kosta,Koufos,C,27,214.5,265,25,61,0.89,1.94,0.548,8.5,0.526,0,0,3.28,27,4.92,19,0.6,35,64,0.75,1.34,70,,,,
players,Quincy,Acy,SF,25,203.1,240,25,59,0.91,2.18,0.735,5.75,0.607,1.46,0.388,2,16,3.82,61,0.91,55,66,0.91,0.73,70,,,,
players,Caron,Butler,SF,36,203.9,210,25,76,0.49,1.73,0.833,7.54,0.542,2.72,0.167,0.74,36,2.47,67,1.48,75,63,1.23,0.25,73,,,,
players,James,Anderson,SG,27,199,206,25,80,1.51,1.14,0.759,4.93,0.444,3.22,0.267,0.57,25,2.65,35,1.51,71,67,0.76,0.57,70,,,,
,,,,,,,,,,,,,,,,,,,,,,,,,,,,,
,,,,,,,,,,,,,,,,,,,,,,,,,,,,,
players,Tim,Duncan,C,40,212,250,26,95,1.81,2.53,0.702,8.69,0.486,0.07,0.138,2.29,85,6.51,52,3.26,75,61,0.97,1.57,77,HF,,,
players,Lamarcus,Aldridge,PF,30,211.5,260,26,86,1.37,4.31,0.858,14.64,0.518,0.21,0.262,2.53,80,6.52,57,1.58,75,68,0.53,1.16,78,,,,
players,Kawhi,Leonard,SF,25,201.5,230,26,100,1.5,4.6,0.874,11.1,0.532,4,0.443,1.3,94,5.5,92,2.6,80,73,1.8,1,98,HH,,,
players,Danny,Green,SG,27,199,210,26,87,1.06,0.71,0.739,4.28,0.444,5.31,0.37,0.71,58,3.76,69,2.21,65,68,1.18,0.94,89,,,,
players,Tony,Parker,PG,34,189,185,26,68,2.04,2.72,0.76,10.32,0.5,1.02,0.415,0.23,79,2.49,89,6.01,85,56,0.91,0.23,92,IH,,,
players,Patty,Mills,PG,26,184.5,185,26,71,1.27,0.98,0.81,7.69,0.472,6.09,0.403,0.42,30,2.25,94,4.58,85,85,1.2,0.14,70,IH,,,
players,David,West,PF,35,207.7,250,26,81,1.4,1.56,0.788,8.77,0.554,0.16,0.429,1.4,28,4.67,72,2.8,70,60,0.93,1.09,82,,,,
players,Boris,Diaw,PF,32,204.9,250,26,92,2,1.54,0.737,7.14,0.585,1.52,0.362,1.73,47,3.79,68,4.46,65,61,0.52,0.52,83,PT,,,
players,Boban,Marjanovic,C,27,222.5,290,26,67,1.34,5.61,0.763,8.56,0.594,0.07,0.11,3.74,25,5.88,8,1.07,65,70,0.53,1.07,38,,,,
players,Manu,Ginobili,SG,37,199.8,205,26,67,2.47,2.77,0.813,7.82,0.5,4.51,0.391,0.58,60,3.06,62,4.51,85,60,1.6,0.29,85,IH,,,
players,Kyle,Anderson,SF,22,207.7,230,26,51,1.37,1.88,0.747,5.99,0.485,0.85,0.324,0.51,8,4.78,54,2.73,75,76,1.37,0.68,60,,,,
players,Kevin,Martin,SG,33,201.8,204,26,79,1.35,3.2,0.933,6.82,0.375,3.53,0.333,0.66,54,3.05,68,1.62,75,65,1.01,0.17,80,,,,
players,Jonathon,Simmons,SG,26,199.8,195,26,58,1.82,3.09,0.75,7.11,0.543,1.64,0.383,0.55,6,2.73,69,2,75,65,0.73,0.18,63,R,,,
players,Andre,Miller,PG,38,188.2,170,26,73,1.72,1.92,0.692,6.79,0.5,0.57,0.25,0.96,37,3.07,66,4.22,70,73,0.96,0,82,,,,
players,Matt,Bonner,PF,35,209.7,235,26,58,0.35,0.35,0.75,5.59,0.625,3.87,0.417,0.35,18,2.82,15,1.06,75,55,0.7,0.03,70,,,,
,,,,,,,,,,,,,,,,,,,,,,,,,,,,,
,,,,,,,,,,,,,,,,,,,,,,,,,,,,,
players,Jonas,Valanciunas,C,23,214.5,240,27,70,1.66,4.26,0.761,10.53,0.573,0.07,0.162,3.67,62,7.21,22,0.83,70,70,0.47,1.54,60,IH,,,
players,Patrick,Patterson,PF,27,207.2,235,27,85,0.9,0.48,0.853,4.03,0.52,4.55,0.362,1.29,48,4.3,58,1.61,70,59,0.89,0.53,88,,,,
players,Demarre,Carroll,SF,29,204.1,224,27,76,1.17,2.02,0.6,6.54,0.373,4.78,0.39,1.27,51,3.72,70,1.06,60,64,1.81,0.21,78,,,,
players,Demar,DeRozan,SG,26,200.8,220,27,72,2.2,8.4,0.85,15.9,0.459,1.8,0.338,0.8,80,3.7,86,4,75,69,1,0.3,92,SP,,,
players,Kyle,Lowry,PG,30,185,205,27,79,2.9,6.4,0.811,8.5,0.447,7.1,0.388,0.7,86,4,97,6.4,75,90,2.1,0.4,100,SP,,,
players,Cory,Joseph,PG,24,191.5,185,27,69,1.55,2.62,0.764,7.31,0.475,1.67,0.273,0.6,38,2.5,78,3.7,55,71,0.95,0.36,86,,,,
players,Bismack,Biyombo,C,23,207.9,245,27,88,1.2,3.73,0.628,4.67,0.543,0.07,0.086,2.93,20,7.73,31,0.53,60,75,0.27,2.13,68,,,,
players,Terrence,Ross,SG,25,200.8,195,27,69,0.75,1,0.79,6.18,0.475,5.77,0.388,0.38,56,2.76,87,1,65,65,0.88,0.38,88,SP,,,
players,Luis,Scola,PF,35,206,240,27,86,1.22,1.49,0.726,8.95,0.448,2.92,0.404,1.74,50,5.12,54,1.22,75,62,0.87,0.6,82,,,,
players,Jason,Thompson,PF,29,211.7,250,27,66,0.7,2.11,0.818,5.37,0.519,1.41,0.333,2.11,40,5.46,45,0.88,65,65,0.7,1.06,66,,,,
players,Norman,Powell,SG,22,200.8,215,27,46,1.27,2,0.811,6.75,0.448,3.28,0.404,0.55,7,3.46,60,1.82,65,73,1.09,0.36,69,,,,
players,James,Johnson,PF,29,211.7,250,27,86,1.52,2.03,0.574,5.9,0.533,2.03,0.303,0.85,22,2.88,57,2.03,65,65,0.85,1.01,77,,,,
players,Delon,Wright,PG,23,191.5,190,27,38,1.75,3.8,0.743,8.26,0.44,1.46,0.385,0.88,1,3.21,55,3.21,55,77,0.88,0.29,61,,,,
players,Lucas,Nogueira,C,23,212,220,27,63,1.28,1.6,0.533,5.19,0.527,0.32,0.223,2.11,3,3.67,38,0.64,65,75,1.06,1.28,65,,,,
,,,,,,,,,,,,,,,,,,,,,,,,,,,,,
,,,,,,,,,,,,,,,,,,,,,,,,,,,,,
players,Rudy,Gobert,C,23,212,246,28,78,1.95,4.73,0.569,5.96,0.552,0.07,0.086,3.49,49,7.71,45,1.54,65,71,0.72,2.26,73,IH,,,
players,Derrick,Favors,PF,24,213,262,28,90,1.74,4.19,0.709,13.27,0.515,0.17,0.205,2.76,65,5.51,38,1.53,75,73,1.22,1.53,83,HH,,,
players,Gordon,Hayward,SF,26,203.5,225,28,81,2.5,6,0.824,9.9,0.475,5.1,0.349,0.8,75,4.2,68,3.7,75,74,1.2,0.3,80,,,,
players,Rodney,Hood,SG,23,205.2,215,28,68,1.63,2.54,0.86,6.8,0.485,5.79,0.359,0.51,39,2.95,77,2.74,48,68,0.91,0.2,79,,,,
players,Shelvin,Mack,PG,25,193.9,203,28,71,3,1.86,0.735,8.29,0.481,3.62,0.357,0.41,10,3.52,78,5.48,45,72,0.93,0.1,81,,,,
players,Alec,Burks,SG,24,199.1,211,28,59,1.9,5.35,0.752,10.35,0.41,2.97,0.405,0.59,43,3.57,61,2.38,65,68,0.71,0.12,82,PT,,,
players,Trey,Burke,PG,23,187.8,185,28,61,1.78,1.78,0.817,9.53,0.458,5.46,0.344,0.41,39,2.05,80,3.51,70,74,0.68,0.14,71,PT,,,
players,Trevor,Booker,PF,28,205,202,28,66,1.4,1.81,0.67,6.34,0.5,0.7,0.293,2.93,36,5.03,35,1.54,60,68,0.98,0.7,82,,,,
players,Dante,Exum,PG,20,200.5,192,28,51,1.48,2.8,0.657,4.68,0.403,2.57,0.314,0.45,41,2.19,73,3.41,40,73,0.81,0.32,60,IH,,,
players,Raul,Neto,PG,23,185.5,179,28,63,1.98,1.37,0.743,5.92,0.438,3.05,0.395,0.3,18,1.98,79,3.2,40,72,1.22,0.05,70,R,,,
players,Trey,Lyles,PF,20,213,234,28,71,1.28,1.61,0.695,7.23,0.462,2.57,0.383,1.12,21,4.82,37,1.12,60,60,0.48,0.32,61,R,,,
players,Joe,Ingles,SF,28,205.2,208,28,83,1.42,0.35,0.722,3.78,0.5,4.61,0.386,0.5,17,3.19,65,2.4,62,71,1.32,0.05,77,IH,,,
players,Jeff,Withey,C,26,218.1,231,28,59,1.02,2.45,0.729,6.52,0.531,0.07,0.148,2.24,5,4.69,33,0.82,65,69,0.58,1.77,46,,,,
players,Chris,Johnson,SF,25,201,206,28,64,1.28,1.28,0.81,4.58,0.429,2.99,0.273,0.85,33,3.2,60,1.28,62,62,1.07,0.64,70,,,,
,,,,,,,,,,,,,,,,,,,,,,,,,,,,,
,,,,,,,,,,,,,,,,,,,,,,,,,,,,,
players,Marcin,Gortat,C,32,213.1,241,29,88,1.7,2.98,0.705,10.86,0.569,0.07,0.152,3.19,42,7.34,47,1.49,65,65,0.64,1.38,72,IH,,,
players,Markieff,Morris,PF,26,209.7,245,29,60,1.98,2.33,0.764,9.47,0.532,3.38,0.316,1.28,33,5.48,64,1.63,55,67,1.05,0.7,70,,,,
players,Otto,Porter,SF,22,205.1,205,29,65,0.95,1.8,0.754,6.57,0.533,3.81,0.367,1.38,58,4.13,70,1.7,55,71,1.48,0.42,72,,,,
players,Bradley,Beal,SG,22,197.6,206,29,75,2.08,3.33,0.767,10.19,0.479,5.1,0.387,0.73,68,2.81,87,3.02,75,72,1.04,0.21,85,SP,,,
players,John,Wall,PG,25,194.1,195,29,73,4.1,4.5,0.791,13.2,0.447,4.3,0.351,0.5,92,4.4,98,10.2,95,74,1.9,0.8,96,HH,,,
players,Ramon,Sessions,PG,28,189.7,194,29,61,1.98,4.96,0.756,8.8,0.517,1.98,0.324,0.43,34,3.12,67,4.11,65,70,0.85,0.14,71,,,,
players,Nene,Hilario,PF,33,212.7,250,29,71,1.92,4.73,0.578,9.81,0.561,0.15,0.105,1.33,37,5.33,31,2.51,75,64,1.33,0.74,61,,,,
players,Jared,Dudley,SF,30,203.1,225,29,79,1.18,1.42,0.735,4.36,0.548,3.5,0.42,0.88,34,3.55,74,2.57,70,65,1.12,0.29,86,,,,
players,Marcus,Thornton,SG,28,194.5,205,29,66,1.37,2.56,0.762,6.92,0.459,5.46,0.333,0.85,16,3.42,63,2.22,80,65,1.54,0.17,61,,,,
players,Garrett,Temple,SG,30,199.1,195,29,61,0.99,1.98,0.728,4.58,0.452,3.95,0.345,0.62,33,2.72,73,2.22,80,62,1.11,0.25,86,,,,
players,Kelly,Oubre,SF,20,203,205,29,62.7,1.19,1.91,0.633,5.92,0.5,2.84,0.316,0.86,17.5,3.82,54,0.48,46,75.8,0.64,0.16,70,,,,
players,JJ,Hickson,PF,27,206.2,242,29,60,1.72,5.05,0.432,8.77,0.567,0.29,0.062,2.25,29,3.76,25,1.43,75,74,0.62,0.26,40,,,,
,,,,,,,,,,,,,,,,,,,,,,,,,,,,,
,,,,,,,,,,,,,,,,,,,,,,,,,,,,,
players,Mehmet,Brooks,SG,26,196,211,-1,74,2.16,2.72,0.764,8.99,0.463,2.75,0.323,0.82,29,3.7,66,2.36,45,70,0.92,0.31,85,,,,
players,Shannon,Brown,SG,30,190,208,-1,71,1.4,2.14,0.808,8.87,0.446,4.07,0.362,0.64,47,3.32,91,1.53,70,70,1.02,0.38,88,SP,,,
players,Daniel,Blair,PF,24,199,274,-1,71,1.99,2.64,0.593,9.84,0.514,0.02,0.086,1.4,12,5.66,31,1.62,60,70,0.85,0.17,43,,,,
players,Christoff,Wilcox,PF,31,195,265,-1,61,1.94,2.46,0.615,6.74,0.598,0.06,0.1,2.59,30,7.76,41,0.71,40,55,0.71,0.53,78,,,,
players,David,McGuire,SF,28,200,237,-1,27,1.38,1.34,0.736,5.55,0.456,0.11,0.1,2.19,12,6.55,48,2.93,60,65,1.21,1.03,75,,,,
players,Rick,Turiaf,C,31,212,226,-1,32,0.89,3.02,0.591,3.98,0.552,0.14,0.1,2.68,31,8.04,23,0.71,70,65,1.07,1.96,75,,,,
players,Chuck,Hayes,PF,30,200,267,-1,68,1.41,1.27,0.667,5.49,0.435,0.07,0.1,2.52,23,7.59,30,2.47,75,60,1.24,0.53,78,,,,
players,Greg,Oden,C,34,216.6,294,-1,53,1.62,1.29,0.664,9.24,0.491,0.03,0.014,1.28,34,6.68,30,2.58,60,66,0.39,1.55,20,,,,
players,Joel,Anthony,C,35,211.1,277,-1,57,0.72,1.59,0.69,3.41,0.559,0.02,0.1,1.87,5,5.6,5,0.14,45,55,0.86,1.87,75,,,,
players,Samuel,Dalembert,C,41,213,262,-1,62,1.77,2.37,0.796,8.27,0.474,0.02,0.1,2.93,22,8.47,17,0.68,60,59,0.82,2.32,49,,,,
players,Harry,Thabeet,C,33,220.6,233,-1,65,1.97,1.64,0.6,7.65,0.429,0.14,0.01,1.75,12,8.43,22,0.49,45,60,0.49,1.87,70,,,,
players,Dwight,Orton,C,31,211,253,-1,43,1.84,4.11,0.44,6.6,0.586,0.43,0.1,2.11,12,6.32,19,2.84,65,60,1.32,1.58,70,,,,
players,Paul,Antic,C,33,212.9,244,-1,72,2.4,2.47,0.745,4.82,0.419,3.15,0.313,0.41,33,5.05,46,1.53,45,41,0.34,0.26,63,,,,
players,Greg,Wallace,SF,33,202.6,220,-1,68,1.35,3.37,0.579,3.23,0.434,0.94,0.337,1.24,32,4.77,44,0.96,75,41,1.34,0.69,39,,,,
players,Jordy,Jordan,C,29,213,253,-1,56,0.75,1.21,0.838,9.33,0.52,0.07,0.252,1.71,9,7.35,28,0.91,40,72,0.66,0.93,53,,,,
players,Donald,Morris,PG,25,195.1,195,-1,48,2.4,2.47,0.585,4.49,0.413,2.01,0.275,0.46,27,2.17,36,5.2,45,62,0.74,0.12,70,,,,
players,Eddy,Clark,SF,28,207.8,234,-1,57,2.4,2.47,0.655,3.99,0.419,2.14,0.318,0.41,27,6.37,37,0.88,45,60,0.98,1.16,63,,,,
players,Andy,Anderson,SF,33,198.4,220,-1,51,0.59,2.23,0.803,4.64,0.458,3.6,0.355,0.75,16,2.23,48,1.39,40,59,1.18,0.22,63,,,,
players,Jerome,Taylor,SF,26,201.5,226,-1,60,1.59,0.8,0.64,7.08,0.42,2.47,0.305,1.13,14,3.24,48,1.71,65,56,0.85,0.13,64,,,,
players,Nick,Mohammed,C,38,208.9,252,-1,59,1.25,1.01,0.625,7.41,0.436,0.07,0.019,2,8,6.54,12,0.65,35,50,0.4,1.25,52,,,,
players,Shaun,Marion,PF,37,200.9,228,-1,66,0.89,1.46,0.766,7.25,0.464,1.07,0.294,1.33,40,4.45,46,1.53,70,55,0.82,0.67,46,,,,
players,Nate,Robinson,PG,31,176.8,181,-1,50,1.94,2.87,0.832,7.52,0.438,3.06,0.355,0.65,44,2.59,55,4.35,85,67,1.26,0.24,81,SP,,,
players,Vincent,Claver,PF,27,208.7,235,-1,63,0.93,1.37,0.72,5.24,0.428,1.37,0.29,1.07,20,3.94,43,1.54,55,65,0.57,0.47,75,,,,
players,Chris,Martin,SG,31,202.7,220,-1,41,1.05,1.47,0.699,4.24,0.412,4.2,0.373,0.74,1,3.51,70,0.88,60,58,0.92,0.24,65,,,,
players,Joe,O'Niel,C,37,211,229,-1,63,1.06,1.65,0.677,7.87,0.51,0.05,0.1,2.39,35,7.77,18,0.9,75,60,0.4,2.13,56,,,,
players,Kerbal,Papanikolaou,SF,25,204.1,224,-1,62,0.75,1.14,0.74,5.7,0.463,4.25,0.259,2,32,5.89,46,1.58,44,65,1.3,0.64,75,,,,
players,Roger,Lewis,SF,36,210,235,-1,50,1.28,1.54,0.768,6.02,0.458,2.69,0.35,1.41,30,4.29,68,1.16,40,40,0.93,0.47,65,,,,
players,Barry,James,C,30,208.5,235,-1,59,0.72,2.87,0.729,4.69,0.463,0.43,0.1,2.26,15,4.97,7,0.92,71,60,0.46,1.94,40,,,,
players,Carl,Copeland,SF,32,203.8,230,-1,55,1.52,1.53,0.833,6.77,0.432,5.15,0.338,1.23,15,3.92,65,5.24,65,65,1.34,0.53,70,,,,
players,Harry,Turkoglu,SF,37,210.3,220,-1,57,2.4,2.47,0.835,7.82,0.481,2.14,0.337,0.46,34,4.45,75,1.71,61,61,0.47,0.23,67,,,,
players,Ramon,Hollins,PF,32,213,254,-1,41,1.61,4.61,0.6,4.7,0.5,0.08,0.1,1.55,19,4.63,36,0.6,50,53,0.4,1.01,70,,,,
players,Garry,Davis,C,30,207.6,289,-1,68,1.94,3.54,0.683,11.02,0.429,0.3,0.143,3.19,68,9.57,30,1.03,80,64,0.91,0.39,40,,,,
players,Carlos,Boozer,PF,34,206.5,258,-1,71,1.54,2.13,0.693,11.72,0.533,0.02,0.1,1.57,60,8.34,28,1.95,65,60,0.86,0.41,85,,,,
players,Steve,Nash,PG,41,190,171,-1,65,2.16,2.19,0.894,5.38,0.553,2.04,0.407,0.57,86,2.87,94,8.99,86,60,0.57,0.1,73,HF,,,
players,Exavier,Henry,SG,28,199.2,197,-1,60,1.26,3.39,0.612,7.75,0.45,0.68,0.331,1.44,48,4.31,55,1.44,65,64,1.08,0.68,81,,,,
players,Jerry,Stokes,SF,22,207.8,264,-1,54,2.4,2.47,0.535,7.32,0.446,1.88,0.232,1.46,27,6.01,55,1.71,45,67,1.03,1.11,70,,,,
players,Nigel,Calathes,SG,27,199.4,213,-1,57,1.98,7.14,0.696,4.61,0.415,2.53,0.326,0.23,26,2.61,57,1.32,70,60,0.53,0.53,71,,,,
players,Danny,Granger,SF,33,208.2,224,-1,70,1.63,4.25,0.873,7.82,0.447,4.59,0.357,0.42,38,4.53,79,1.63,70,55,0.91,0.39,71,,,,
players,Kenyon,Martin,PF,39,204.5,255,-1,83,0.74,1.46,0.75,6.56,0.56,0.11,0.048,2.6,28,7.43,35,1.35,45,60,0.68,1.72,50,,,,
players,Ersan,Udoh,PF,29,207.5,207,-1,53,1.36,3.28,0.8,7.08,0.417,0.13,0.1,1.12,14,7.09,41,1.66,50,58,1.06,2.41,80,,,,
players,Nate,Wolters,PG,26,186.4,175,-1,55,1.82,1.35,0.754,7.01,0.407,2.8,0.24,0.43,24,3.53,60,6.84,65,70,0.84,0.16,86,,,,
players,Rod,Hummel,SF,27,205.2,220,-1,56,0.96,2.47,0.735,7.82,0.453,2.81,0.265,0.86,20,4.21,60,2.35,36,64,0.36,0.44,70,,,,
players,Andy,Bennett,PF,23,205,245,-1,61,1.4,2.27,0.766,9.24,0.442,2.03,0.24,1.43,52,6.04,65,2.37,70,67,0.81,0.78,68,,,,
players,John,Fredette,SG,27,188.8,195,-1,59,1.79,1.28,0.833,4.48,0.425,5.24,0.361,0.65,59,1.96,56,2.93,90,66,0.82,0.16,79,,,,
players,Grant,Stiemsma,C,29,212.5,283,-1,67,0.66,1.63,0.707,4.78,0.55,0.04,0.1,2.34,15,7.01,10,1.09,60,60,1.53,2.41,57,,,,
players,Andre,Bargnani,C,30,214.6,250,-1,55,1.99,5.06,0.873,10.79,0.474,3.36,0.315,1.18,43,4.98,72,1.09,59,65,0.54,0.88,77,,,,
players,Perry,Jones,SF,24,213.2,235,-1,52,1.79,3.75,0.7,7.24,0.513,1.37,0.25,1.54,34,4.62,45,3.74,60,69,0.62,0.62,80,,,,
players,DJ,Augustine,PG,28,183.5,183,-1,44,1.65,2.58,0.855,5.45,0.403,2.77,0.351,0.52,35,2.37,71,6.6,65,60,0.82,0.03,83,,,,
players,Luke,Ridnour,PG,35,188.1,175,-1,64,1.46,2.05,0.891,6.04,0.485,2.15,0.322,0.55,40,2.47,71,6.04,65,63,1.01,0.27,76,,,,
players,Branson,Gordon,SG,33,192.9,205,-1,64,2.13,2.94,0.86,8.28,0.446,3.18,0.429,0.56,27,2.58,80,2.82,75,65,0.79,0.22,80,,,,
players,Jonas,Maxiell,PF,32,206.5,256,-1,30,1.48,2.19,0.547,8.72,0.501,0.04,0.1,2.29,32,6.86,25,0.81,60,70,0.67,1.08,82,,,,
players,Tony,Wroten,PG,23,198.2,205,-1,63,2.4,1.06,0.727,9.76,0.468,2.79,0.343,0.85,49,4.32,73,5.71,50,68,1.01,0.24,80,,,,
players,JJ,Richardson,SG,35,199.2,225,-1,78,1.16,3.31,0.784,6.05,0.442,5.25,0.387,0.91,47,4.77,82,3.06,70,61,1,0.38,70,,,,
players,Emily,Okafor,C,35,211,258,-1,85,1.46,2.85,0.514,8.26,0.533,0.04,0.1,2.4,30,8.23,18,0.94,65,50,0.63,1.04,41,,,,
players,Dominic,Wright,SF,30,206.2,205,-1,58,1.01,1.8,0.816,4.29,0.5,5.36,0.36,1.12,18,5.15,66,1.68,65,60,1.12,0.45,82,,,,
players,Jeremy,Freeland,PF,29,212.1,255,-1,65,2.28,1.66,0.681,8.99,0.438,0.67,0.16,2.11,32,7.16,41,5.46,60,66,0.66,1.35,70,,,,
players,Darrick,Stockton,PG,24,182.4,165,-1,64,2.14,2.47,0.835,6.65,0.488,2.68,0.327,0.46,68,2.17,72,7.12,57,69,1.08,0.23,73,,,,
players,Luke,Fields,SG,27,200.8,215,-1,65,1.37,2.19,0.562,6.25,0.523,1.93,0.315,1.47,37,4.42,75,3.29,70,66,1.26,0.32,84,,,,
players,Darren,Buycks,SG,24,187,200,-1,55,1.5,1.68,0.75,7.24,0.42,2.21,0.291,0.82,31,2.49,70,5.11,40,64,0.93,0.16,85,,,,
players,Andrew,Biedrins,C,32,218.2,317,-1,63,0.97,0.37,0.4,2.64,0.609,0.04,0.1,2.38,10,7.16,13,0.58,65,45,0.97,2.13,39,,,,
players,Jamal,Tinsley,PG,36,187,198,-1,64,1.56,1.02,0.765,6.25,0.452,2.22,0.32,0.89,49,2.67,85,7.33,55,55,1.11,0.44,70,CG,,,
players,Will,Bynum,PG,33,183.9,184,-1,67,3.19,3.78,0.766,9.75,0.435,1.71,0.29,1.13,34,3.4,62,3.83,70,63,1.28,0.21,80,,,,
players,JaVale,Vesely,SF,27,206.2,225,-1,21,1.76,1.75,0.532,6.11,0.539,0.03,0.2,0.91,21,4.3,67,1.28,60,64,1.12,0.96,72,,,,
,,,,,,,,,,,,,,,,,,,,,,,,,,,,,
,,,,,,,,,,,,,,,,,,,,,,,,,,,,,
Rookies,Ben,Simmons,PF,20,209.4,239,,82,3.09,5.75,0.667,12,0.501,0.2,0.225,2.18,56,6.92,64,4.59,93,73,1.47,0.48,71,USA,Louisiana,LSU,R
Rookies,Brandon,Ingram,SF,19,208.2,196,,58,1.89,3.08,0.689,8,0.456,4,0.381,1.2,46.5,4.85,70,1.94,86,69.8,0.94,1.14,88,USA,North Carolina,Duke,R
Rookies,Jamal,Murray,PG,19,196.4,201,,58,2.25,2.58,0.781,9,0.482,5.4,0.385,0.93,26,3.89,71,1.97,71,67.2,0.92,0.21,89,USA,Kentucky,Kentucky,R
Rookies,Kris,Dunn,PG,22,193.4,205,,60.7,3.15,3.67,0.695,8.83,0.468,2.87,0.352,0.67,26.5,3.84,81,5.52,83,79.4,2.25,0.51,71,USA,Rhode Island,Providence,R
Rookies,Buddy,Hield,SG,22,193.3,214,,68,3.11,3.67,0.88,10.33,0.501,6.13,0.405,0.73,43.5,4.02,62,1.95,56,82,0.98,0.36,82,USA,Oklahoma,Oklahoma,R
Rookies,Jaylen,Brown,SF,20,201.8,222,,72.7,3.06,4.67,0.654,9.33,0.464,2.53,0.28,0.62,36,3.51,72,2.03,74,63.6,0.48,0.45,82,USA,California,California,R
Rookies,Henry,Ellenson,SG,19,210.3,231,,43,2.3,4.17,0.746,9.67,0.472,2.33,0.266,1.05,14.5,7.12,30,1.82,63,66.6,0.72,1.4,58,USA,Wisconsin,Marquette,R
Rookies,Dragan,Bender,C,18,217.9,225,,60,1.24,2.92,0.465,7.67,0.469,1.47,0.287,1.45,35,5.02,42,1.56,96,58.4,0.51,1.13,66,Bosnia and Herzegovina,,Capljina,R
Rookies,Jakob,Poeltl,C,20,216.7,242,,77,1.85,4.75,0.691,10,0.563,0.07,0.103,2.73,20,5.16,32,1.85,78,74.8,0.46,1.38,67,USA,Utah,Utah,R
Rookies,Skal,Labissiere,PF,20,213.8,216,,69,0.99,2.25,0.668,8,0.475,0.07,0.192,0.82,14.5,4.6,60,0.62,85,72.2,0.44,2.27,62,USA,Kentucky,Kentucky,R
Rookies,Marquese,Chriss,PF,19,206.6,225,,53,1.56,2.5,0.679,8.5,0.505,1.87,0.34,1.05,20,4.03,64,0.61,54,80.2,0.81,1.54,62,USA,Washington,Washington,R
Rookies,Denzel,Valentine,SG,22,199.5,223,,68.3,1.8,1.92,0.827,8.5,0.453,6,0.401,1.05,21,5.03,61,6.39,75,66.8,0.88,0.15,73,USA,Michigan,Michigan St,R
Rookies,Timothe,Luwawu,SG,21,203,205,,70.7,2.12,2.83,0.685,6,0.425,3.93,0.358,0.7,14.5,3.45,69,2.6,58,62.8,1.52,0.34,77,France,,Cannes,R
Rookies,Deyonta,Davis,PF,19,209.2,230,,53.3,1.83,1.75,0.589,8.5,0.51,0.07,0.112,1.6,14,5.45,47,1.22,69,67.6,0.49,2.16,61,USA,Michigan,Michigan St,R
Rookies,Ivan,Rabb,PF,19,210.7,215,,62,1.23,2.92,0.656,8.17,0.522,0.07,0.238,1.53,12.5,5.74,43,0.78,53,73.4,0.36,1.03,70,USA,California,California,R
Rookies,Wade,Baldwin,PG,20,192.4,195,,66,2.76,4.17,0.8,7.83,0.43,2.6,0.403,0.78,14.5,2.95,70,4.77,83,63,1.07,0.24,72,USA,Tennessee,Vanderbilt,R
Rookies,Furkan,Korkmaz,SG,19,202.5,185,,58,0.87,4,0.736,5,0.449,3.13,0.366,0.77,21.5,3.36,68,2.43,36,62.6,1.23,0.11,78,Turkey,,Bakirkoy,R
Rookies,Tyler,Ulis,PG,20,177.2,160,,46,2.05,3,0.845,9.17,0.455,3.53,0.332,0.33,27.5,2.31,81,6.51,49,78.2,1.39,0.11,84,USA,Kentucky,Kentucky,R
Rookies,Domantas,Sabonis,C,21,209.2,231,,72.7,1.91,3.67,0.761,11,0.526,0.27,0.279,1.97,25,8.37,50,1.51,70,65.4,0.46,0.83,74,USA,Washington,Gonzaga,R
Rookies,Dejounte,Murray,SG,19,195.8,170,,82.7,3.21,3.83,0.681,9.17,0.431,2.33,0.283,1,12,4.08,81,3.99,86,80.6,1.78,0.22,91,USA,Washington,Washington,R
Rookies,Patrick,McCaw,SG,20,201.7,185,,76,2.08,1.83,0.77,7.33,0.461,3.4,0.346,0.67,3,3.53,73,3.48,71,71.2,2.3,0.31,77,USA,Nevada,UNLV,R
Rookies,Kay,Felder,PG,20,176.5,176,,50.7,3.36,5.92,0.845,12,0.457,4.07,0.338,0.5,22,3.2,92,7.98,62,83.4,1.9,0.17,80,USA,Michigan,Oakland,R
Rookies,Diamond,Stone,C,19,215,255,,56,1.27,2.33,0.757,8.67,0.53,0.07,0.204,1.1,4,4.43,32,0.52,56,50.6,0.43,1.46,55,USA,Maryland,Maryland,R
Rookies,Demetrius,Jackson,PG,22,185.8,194,,58.3,2.13,3.08,0.771,8.33,0.449,3.27,0.347,0.38,25,2.72,86,4.54,70,73,1.03,0.2,82,USA,Indiana,Notre Dame,R
Rookies,Damian,Jones,C,21,213,248,,61.3,1.52,3.42,0.536,8.83,0.527,0.07,0.139,1.05,8,5.84,44,1.21,91,49,0.17,1.4,57,USA,Tennessee,Vanderbilt,R
Rookies,Guerschon,Yabusele,PF,21,203.6,260,,72.3,2.13,2.25,0.761,6.83,0.483,1.4,0.352,1.13,6,4.76,34,0.87,70,68,0.55,1.05,61,France,,Dreux,R
Rookies,Daniel,Hamilton,SF,21,205.4,200,,50.3,2.42,1.5,0.856,7.5,0.424,2.6,0.315,1.45,6,6.2,60,3.87,91,49,0.97,0.33,72,USA,Connecticut,Uconn,R
Rookies,Taurean,Prince,SF,22,201.1,215,,81.7,2.67,2.75,0.705,9,0.444,3,0.353,0.83,8,4.48,60,2.18,52,64.8,1.17,0.6,71,USA,Texas,Baylor,R
Rookies,Ante,Zizic,C,19,212.6,240,,53.7,3.32,3.92,0.699,8.67,0.543,0.07,0.202,1.87,11,5.88,42,0.19,50,66.2,0.47,1.25,54,Croatia,,Split,R
Rookies,Stephen,Zimmerman,C,20,214.7,235,,63.3,2.07,2.5,0.63,8.17,0.465,0.07,0.254,1.33,8,6.5,52,0.75,49,75,0.4,2.03,65,USA,Nevada,UNLV,R
Rookies,Zhou,Qi,C,20,219.4,209,,44.3,1.68,4,0.6,8.67,0.523,0.27,0.255,1.33,13,4.62,35,1.5,46,74.8,0.3,1.41,59,China,,Henan,R
Rookies,Juan,Hernangomez,SF,20,207.3,220,,55.3,2.1,5.08,0.705,6,0.535,1.07,0.291,1.12,4,5.58,43,1.46,66,66.6,0.4,0.92,58,Spain,,Madrid,R
Rookies,Malik,Beasley,SG,19,195,185,,79.3,1.7,2.33,0.807,9,0.472,2.67,0.36,0.88,18,3.36,88,1.4,63,82.4,0.8,0.15,85,USA,Florida,Florida St,R
Rookies,Deandre,Bembry,SF,22,199.2,210,,61.3,1.96,3.33,0.649,8.5,0.467,2.47,0.267,1.23,9,4.74,56,3.82,52,58,1.25,0.55,68,USA,Pennsylvania,Saint Joseph's,R
Rookies,Brice,Johnson,PF,22,206.2,230,,45.3,2.79,3,0.763,10.17,0.556,0.07,0.179,1.25,14,6.89,57,1.18,90,70.8,0.93,1.17,53,USA,North Carolina,North Carolina,R
Rookies,Isaia,Cordinier,SG,19,196.2,190,,70.3,2.48,2.33,0.669,7.67,0.47,2.13,0.357,0.4,2,2.1,71,3.26,96,69,1.71,0.29,73,France,,Creteil,R
Rookies,Melo,Trimble,PG,21,191.2,190,,45,2.63,3.67,0.87,6.5,0.434,3.4,0.321,0.65,1,2.79,73,4.46,49,46.8,0.89,0.08,62,USA,Maryland,Maryland,R
Rookies,Malcolm,Brogdon,SG,20,196.4,215,,62.3,1.35,3.33,0.888,7.33,0.456,3.47,0.38,0.82,17,2.67,53,3.12,74,62.6,0.7,0.17,70,USA,Virginia,Virginia,R
Rookies,AJ,Hammons,C,24,215.1,278,,65,2.02,2.33,0.703,8,0.493,0.47,0.301,1.3,7,6.16,25,1.04,66,46.4,0.3,2.41,47,USA,Indiana,Purdue,R
Rookies,Thon,Maker,PF,19,214.1,219,,61.3,2.3,3.83,0.683,8.67,0.484,1.4,0.284,1.43,19,5.28,68,3.07,29,85.2,0.94,1.72,76,Australia,WA,Perth,R
Rookies,Paul,Zipser,SF,22,204.8,210,,47,2.35,1.5,0.83,6,0.483,1.53,0.253,0.65,3,4.85,35,2.1,67,39,0.85,0.91,45,Germany,,Heidelberg,R
Rookies,Caris,LaVert,SG,22,201.2,200,,44,1.73,3,0.79,7.67,0.461,3.07,0.403,0.68,11,3.54,77,4.45,83,62.8,0.92,0.17,75,USA,Michigan,Michigan,R
Rookies,Wayne,Selden,SG,21,198.8,223,,77.7,2.08,2.58,0.543,6.33,0.472,3.47,0.364,0.52,6,2.41,70,2.43,81,43.6,0.66,0.24,54,USA,Kansas,Kansas,R
Rookies,Pascal,Siakam,PF,22,206.4,230,,61.7,2,4.08,0.685,14.33,0.486,0.33,0.211,1.6,7,7.32,27,1.61,54,74.2,0.83,1.69,71,USA,New Mexico,New Mexico St,R
Rookies,Malik,Newman,PG,19,194.5,179,,57,2.8,1.58,0.691,7.17,0.381,3.67,0.362,0.25,4,1.98,72,1.92,43,29.4,0.39,0.1,90,USA,Mississippi,Mississippi St,R
Rookies,Gary,Payton II,SG,23,192.8,175,,92.3,2.29,2.33,0.646,9.67,0.475,1.47,0.284,1.17,3,4.71,58,4.02,68,68.2,2.47,0.74,71,USA,Oregon,Oregon St,R
Rookies,Malachi,Richardson,SG,20,195.8,195,,61.7,2.12,2.66,0.731,4.34,0.465,4.06,0.331,0.65,7,2.76,62,1.97,86,61.6,1.19,0.27,82,USA,New York,Syracuse,R
Rookies,Joel,Bolomboy,PF,22,206.3,230,,60.3,2.38,4.92,0.704,9.17,0.477,1.2,0.326,2.35,6,7.72,38,1.05,36,45.2,0.62,0.98,68,USA,Utah,Weber St,R
Rookies,Jake,Layman,SF,22,205.9,220,,57.3,1.6,1.92,0.807,5.67,0.484,2.6,0.36,0.7,19,3.49,34,0.94,69,27,0.92,0.9,63,USA,Maryland,Maryland,R
Rookies,Chinanu,Onuaku,C,19,209.1,246,,62,2.15,1.17,0.581,6.83,0.558,0.07,0.108,1.38,2,5.85,37,1.54,69,50.8,0.73,1.91,39,USA,Kentucky,Louisville,R
Rookies,Jarrod,Uthoff,SF,23,206.7,210,,60.3,1.31,2.92,0.796,7.17,0.452,3.47,0.356,0.9,1,4.33,24,1.13,30,14.6,0.86,2.15,48,USA,Iowa,Iowa,R
Rookies,Prince,Ibeh,C,22,212.3,260,,38.7,2.28,1.33,0.407,6.17,0.478,0.07,0.075,1.02,1,4.96,21,0.25,43,17.4,0.4,2.21,67,USA,Texas,Texas,R
Rookies,Dorian,Finney-Smith,SF,23,205.1,220,,52,1.94,3,0.726,6.33,0.437,3.6,0.342,1.05,5,5.64,46,2.1,45,63.2,0.73,0.69,74,USA,Florida,Florida,R
Rookies,Damion,Lee,SF,23,200.2,210,,61.7,1.72,2.92,0.845,7.5,0.41,4.13,0.319,0.58,10,2.57,69,1.99,50,39,1.27,0.05,55,USA,Kentucky,Louisville,R
Rookies,Robert,Carter,PF,22,205.4,247,,37.7,1.54,1.33,0.623,7.5,0.467,1.47,0.264,1,2,5.11,25,0.97,100,40.8,0.7,0.87,57,USA,Maryland,Maryland,R
Rookies,Ben,Bentil,PF,21,205.9,235,,71,1.93,5.08,0.781,11.5,0.464,3,0.294,0.67,14,5.79,47,0.97,42,80.6,0.88,0.89,66,USA,Rhode Island,Providence,R
Rookies,Sheldon,McClellan,SG,23,196.1,205,,46.3,1.35,3.75,0.84,7.5,0.476,2.6,0.384,0.67,3,2.36,61,1.59,70,53.4,0.89,0.25,71,USA,Florida,Miami,R
Rookies,Petr,Cornelie,PF,21,212.7,220,,52.7,1.13,1.33,0.714,7.33,0.437,1.93,0.384,1,10,4.26,32,0.48,62,47.2,0.26,0.6,78,France,,Calais,R
Rookies,Cheick,Diallo,PF,19,206.9,220,,41.3,2.27,2.58,0.563,7.17,0.486,0.07,0.127,1.25,2,5.82,48,0.18,92,49.4,0.3,2.09,62,USA,Kansas,Kansas,R
Rookies,Michael,Gbinije,SG,24,201.9,200,,74.7,2.85,2.75,0.671,8.33,0.457,4.2,0.368,0.45,11,3.06,74,3.6,58,73.2,1.71,0.37,70,USA,New York,Syracuse,R
Rookies,Andrey,Desyatnikov,C,22,220.4,225,,33,1.63,2.08,0.376,7.83,0.465,0.07,0.161,0.9,7,5.38,18,0.87,48,26,0.33,0.95,54,Russia,,Vladivostok,R
Rookies,Yarry,Ferrell,PG,23,185.1,178,,46,2.46,3.08,0.829,7.17,0.443,3.6,0.399,0.33,7,2.78,71,5.05,88,55.8,0.93,0.05,73,USA,Indiana,Indiana,R
Rookies,Anthony,Barber,PG,22,190,185,,62,2.57,5.5,0.856,13.83,0.439,2.4,0.344,0.33,12,3.5,92,4.11,46,76.6,0.51,0.08,76,USA,North Carolina,N.C. State,R
Rookies,Perry,Ellis,SF,22,204.2,222,,57.7,1.52,3.08,0.779,10,0.487,1.13,0.388,0.83,12,4.5,35,1.22,49,11.4,0.46,0.51,65,USA,Kansas,Kansas,R
Rookies,Rade,Zagorac,SF,21,204.1,205,,49.7,2.84,2.83,0.856,5.83,0.471,1.93,0.283,0.77,3,4.19,54,2.78,50,43.2,1.42,0.4,63,Serbia,,Belgrade,R
Rookies,Josh,Hart,SG,21,196.3,202,,50,1.69,2,0.748,8.67,0.463,2.6,0.333,0.88,4,4.72,63,1.79,43,63.8,1.05,0.21,68,USA,Pennsylvania,Villanova,R
Rookies,Isaiah,Whitehead,SG,21,194.9,195,,75,3.6,3.92,0.764,8.5,0.395,4.33,0.348,0.52,7,2.29,63,4.24,56,69.6,1.31,1.25,61,USA,New Jersey,Seton Hall,R
Rookies,Jaron,Blossomgame,SF,22,201.2,220,,45,1.77,3.75,0.777,9,0.479,2.2,0.392,0.97,6,4.46,55,1.37,52,41.4,0.59,1.03,64,USA,South Carolina,Clemson,R
Rookies,Isaiah,Taylor,PG,22,190.2,168,,38.7,1.8,4.08,0.807,8.17,0.439,1.2,0.282,0.28,5,1.91,64,4.18,44,46.6,0.86,0.12,75,USA,Texas,Texas,R
Rookies,Demetrius,Jackson,SF,21,204.1,201,,40,1.07,1.17,0.66,7.67,0.468,2,0.279,0.62,2,2.67,47,2.73,54,36.8,0.59,0.33,64,USA,North Carolina,North Carolina,R
Rookies,Napster,Hayes,PF,21,204.2,235,,47,2.34,5.33,0.74,7.67,0.396,2.53,0.272,0.48,4,3.88,53,2.79,47,8,0.93,0.29,60,USA,Utah,Weber St,R
Rookies,Victor John,Beachem,SF,21,205.3,200,,51.7,0.92,0.75,0.572,5.33,0.471,3.67,0.418,0.47,3,2.54,51,0.69,74,23,0.73,0.71,70,USA,Indiana,Notre Dame,R
Rookies,Ivan,Zubac,C,19,217.6,265,,34.3,3.7,3,0.657,8,0.527,0.07,0.1,1.28,8,4.49,26,0.81,60,43.4,0.39,1.27,62,Bosnia and Herzegovina,,Mostar,R
,,,,,,,,,,,,,,,,,,,,,,,,,,,,,
,,,,,,,,,,,,,,,,,,,,,,,,,,,,,
,Team ID,First,Last,Age,Position,Authority,Expectation,Personality,ShotSelection,BallMovement,Rebounding,Defence,Structure,DevShot,DevBallMovement,DevRebounding,DevDefence,DevFitness,FindTalent,FindPotential,Persuasion,Dedication,Desire,Potential,,,,,
Coaches,0,Mike,Budenholzer,49,HC,70,71,76,54,69,72,60,80,60,68,55,62,41,23,34,67,100,84,75,,,,,
Coaches,1,Brad,Stevens,37,HC,50,67,50,75,62,65,69,60,62,76,75,64,57,43,30,78,87,90,85,,,,,
Coaches,2,Kenny,Atkinson,41,HC,55,44,72,56,74,54,49,50,53,85,54,66,50,45,67,63,76,89,85,,,,,
Coaches,3,Steve,Clifford,48,HC,57,56,72,60,65,75,80,59,53,61,80,85,49,55,54,73,80,12,70,,,,,
Coaches,4,Fredrick,Hoiberg,53,HC,67,76,70,75,85,79,95,80,55,80,66,80,56,45,37,80,95,38,60,,,,,
Coaches,5,Tyronn,Lue,39,HC,72,84,70,53,61,54,72,62,58,61,52,74,71,68,67,68,73,32,75,,,,,
Coaches,6,Rick,Carlisle,49,HC,73,69,75,80,85,70,65,75,70,60,65,70,60,30,35,80,85,99,70,,,,,
Coaches,7,Michael,Malone,46,HC,61,62,75,70,70,65,75,60,50,65,40,80,75,65,45,80,70,32,75,,,,,
Coaches,8,Stan,Van Gundy,58,HC,80,61,70,65,70,65,70,55,53,85,60,80,48,46,70,65,75,98,60,,,,,
Coaches,9,Steve,Kerr,44,HC,82,91,81,88,82,65,69,69,94,91,54,66,79,63,39,75,79,88,88,,,,,
Coaches,10,JB,Bickerstaff,52,HC,72,64,80,72,68,77,70,61,75,54,80,80,50,39,40,80,85,15,60,,,,,
Coaches,11,Frank,Vogel,42,HC,48,67,75,70,65,78,90,75,67,69,79,84,65,36,51,86,80,100,70,,,,,
Coaches,12,Doc,Rivers,53,HC,66,74,85,76,83,89,83,65,65,69,73,74,56,44,51,82,90,86,60,,,,,
Coaches,13,Luke,Walton,58,HC,44,38,75,80,89,61,49,60,63,73,54,36,85,61,65,76,88,47,60,,,,,
Coaches,14,David,Joerger,44,HC,38,70,70,69,65,78,81,71,64,62,75,82,72,34,46,76,74,29,73,,,,,
Coaches,15,Eric,Spoelstra,45,HC,57,79,80,72,68,84,81,75,62,64,60,71,74,34,49,85,79,35,70,,,,,
Coaches,16,Jason,Kidd,41,HC,42,49,72,63,95,54,49,50,73,91,54,66,50,45,67,63,76,89,85,,,,,
Coaches,17,Tom,Thibodeau,43,HC,83,71,70,75,85,79,95,80,55,80,66,80,56,45,37,80,95,38,60,,,,,
Coaches,18,Alvin,Gentry,43,HC,74,63,85,68,75,84,82,72,73,72,67,79,65,48,43,87,83,77,75,,,,,
Coaches,19,Kurt,Rambis,54,HC,62,60,75,58,68,73,68,63,57,61,77,72,69,74,69,67,84,44,70,,,,,
Coaches,20,Billy,Donovan,52,HC,49,87,75,78,71,84,82,64,77,73,67,72,58,32,34,76,90,54,65,,,,,
Coaches,21,Scott,Skiles,44,HC,62,33,70,61,65,67,71,65,71,68,65,68,50,47,27,68,75,4,70,,,,,
Coaches,22,Brett,Brown,53,HC,74,30,75,74,73,66,74,66,75,73,66,79,49,66,36,85,95,53,75,,,,,
Coaches,23,Earl,Watson,46,HC,57,57,80,78,71,65,66,56,81,77,69,70,54,43,29,89,80,25,73,,,,,
Coaches,24,Terry,Stotts,49,HC,46,52,80,67,73,71,63,62,75,73,65,62,52,32,36,73,80,58,70,,,,,
Coaches,25,Martin,Malone,49,HC,66,62,75,69,67,75,82,70,71,66,82,76,46,41,60,87,78,81,75,,,,,
Coaches,26,Gregg,Popovich,65,HC,95,92,41,84,95,81,92,84,70,57,63,66,36,63,30,89,94,87,55,,,,,
Coaches,27,Dwane,Casey,51,HC,65,63,75,68,66,74,76,70,68,66,64,80,59,32,22,81,78,32,65,,,,,
Coaches,28,Quin,Snyder,51,HC,65,54,70,58,66,57,67,64,67,69,76,81,74,67,50,74,83,99,70,,,,,
Coaches,29,Scott,Brooks,49,HC,61,50,75,63,73,63,67,69,73,66,62,59,67,53,39,74,77,43,65,,,,,
Coaches,0,Darven,Ham,40,AC,55,71,65,56,60,65,74,55,62,51,60,61,90,63,59,68,79,12,75,,,,,
Coaches,1,Walter,McCarty,39,AC,60,68,70,57,55,68,68,60,60,51,66,77,69,66,62,67,68,4,70,,,,,
Coaches,2,Joe,Humphries,56,AC,65,60,70,67,68,63,69,60,67,62,60,63,52,59,57,68,73,64,60,,,,,
Coaches,3,Patrick,Ewing,46,AC,70,61,85,53,57,86,80,65,62,57,76,83,70,50,60,69,84,36,75,,,,,
Coaches,4,Randy,Brown,51,AC,55,70,55,52,54,63,70,63,62,62,60,66,98,61,60,64,63,74,90,,,,,
Coaches,5,Barry,Brielmaier,61,AC,65,80,55,68,73,60,64,75,53,73,56,63,67,53,59,58,89,38,55,,,,,
Coaches,6,Darrell,Armstrong,46,AC,55,57,65,59,64,48,54,55,52,71,46,55,76,79,53,59,58,53,65,,,,,
Coaches,7,Ray,Bowen,47,AC,55,57,65,59,64,48,54,55,52,71,46,55,76,79,53,59,58,53,65,,,,,
Coaches,8,Tim,Hardaway,41,AC,70,52,80,79,82,62,64,53,81,90,57,67,81,53,67,67,79,48,75,,,,,
Coaches,9,Ryan,Adams,41,AC,65,56,65,57,59,51,85,62,48,54,55,82,73,66,54,76,73,38,72,,,,,
Coaches,10,Carl,Finch,46,AC,50,56,55,53,62,55,56,46,52,62,48,62,61,53,66,62,58,66,69,,,,,
Coaches,11,Nate,McMillan,50,AC,70,56,70,61,69,67,83,68,54,75,58,80,58,51,52,74,82,37,60,,,,,
Coaches,12,Sam,Cassell,43,AC,70,68,75,70,84,53,57,59,70,74,51,62,54,50,54,65,65,58,80,,,,,
Coaches,13,James,Worthy,66,AC,80,70,55,72,78,53,53,50,71,72,52,54,68,61,58,53,63,35,55,,,,,
Coaches,14,Jonathan,Bzdelik,66,AC,80,70,55,72,78,53,53,50,71,72,52,54,68,61,58,53,63,35,55,,,,,
Coaches,15,Juwaun,Howard,41,AC,60,61,70,53,54,64,54,58,62,67,65,68,73,63,67,75,84,28,90,,,,,
Coaches,16,Gary,Foster,42,AC,60,64,80,54,78,54,68,54,58,78,52,66,70,72,70,69,79,25,77,,,,,
Coaches,17,David,Adelman,51,AC,70,69,70,58,68,53,62,67,73,80,57,64,67,58,67,65,78,69,75,,,,,
Coaches,18,Robert,Pack,46,AC,60,70,75,54,58,49,53,59,77,83,48,69,71,65,62,69,78,67,88,,,,,
Coaches,19,Jimmy,Cleamons,59,AC,60,55,65,54,49,64,58,54,64,52,72,71,68,62,68,62,79,73,64,,,,,
Coaches,20,Maurice,Cheeks,46,AC,60,70,75,54,58,49,53,59,77,83,48,69,71,65,62,69,78,67,88,,,,,
Coaches,21,Mario,Elie,41,AC,60,72,65,53,57,64,56,60,59,63,73,72,69,74,69,62,67,39,68,,,,,
Coaches,22,Mike,Dantoni,66,AC,55,70,60,48,54,41,42,56,74,77,69,78,70,52,60,71,80,8,53,,,,,
Coaches,23,Noel,Bjorkgren,46,AC,65,50,60,57,52,61,71,64,63,59,62,67,66,53,59,74,80,50,80,,,,,
Coaches,24,Johny,Triano,61,AC,60,53,65,58,63,47,59,53,62,61,53,58,57,72,69,71,80,47,55,,,,,
Coaches,25,Corlis,Williamson,43,AC,60,73,70,65,59,67,59,59,80,59,73,68,59,59,69,63,73,83,80,,,,,
Coaches,26,Becky,Hammon,61,AC,65,65,60,59,56,64,58,69,53,56,58,64,58,49,52,69,68,41,60,,,,,
Coaches,27,Nigel,Nurse,69,AC,55,64,70,51,44,51,46,89,67,60,53,51,80,74,80,56,72,70,60,,,,,
Coaches,28,Brian,Jones,37,AC,65,38,65,42,41,46,43,48,53,50,49,50,52,75,72,66,67,37,95,,,,,
Coaches,29,Howard,Eisley,43,AC,70,68,75,70,84,53,57,59,70,74,51,62,54,50,54,65,65,58,80,,,,,
Coaches,-1,Phil,Jackson,68,NA,80,81,95,93,95,83,97,88,61,70,65,82,57,53,54,92,88,27,60,,,,,
Coaches,-1,Jerry,Sloan,68,NA,80,70,75,82,85,85,86,96,65,62,63,65,62,63,64,84,85,86,60,,,,,
Coaches,-1,Dan,Collins,66,NA,70,71,75,70,70,75,70,75,65,67,68,69,73,57,57,86,83,10,60,,,,,
Coaches,-1,Byron,Scott,51,NA,75,82,75,73,69,64,68,73,67,68,61,70,68,64,64,71,75,81,70,,,,,
Coaches,-1,George,Karl,68,NA,70,56,85,82,81,64,61,69,51,70,63,56,68,50,42,79,85,44,60,,,,,
Coaches,-1,Graeme,Hill,40,NA,70,72,90,59,62,63,62,65,67,70,69,60,64,50,51,71,78,32,85,,,,,
Coaches,-1,Shaq,Oneal,41,NA,80,68,95,58,52,66,69,57,71,52,74,75,53,51,52,86,88,50,80,,,,,
Coaches,-1,Jeff,Van Gundy,53,NA,70,70,70,65,65,68,73,58,61,61,60,64,62,63,62,67,67,37,65,,,,,
Coaches,-1,Pat,Riley,66,NA,90,95,90,88,92,96,87,92,64,56,64,58,65,62,45,86,84,64,55,,,,,
Coaches,-1,Hakeem,Olajuwon,49,NA,75,62,80,68,62,93,67,54,85,59,74,80,62,49,45,79,84,67,77,,,,,
Coaches,-1,Les,Rogers,66,NA,28,55,71,64,81,16,60,71,61,42,28,50,84,69,13,90,64,12,52,,,,,
Coaches,-1,Sal,Chavarria,61,NA,41,63,86,84,23,29,62,61,62,43,70,10,66,59,26,15,60,17,40,,,,,
Coaches,-1,Michale,Kennison,54,NA,43,47,43,50,61,18,77,44,14,19,73,75,90,64,78,36,70,56,68,,,,,
Coaches,-1,Sammie,Peters,65,NA,29,64,43,62,28,48,44,68,77,34,78,40,29,51,18,66,83,37,76,,,,,
Coaches,-1,Lucien,Casabloy,61,NA,41,50,40,59,75,32,18,43,43,50,53,12,67,30,17,90,40,76,12,,,,,
Coaches,-1,Darren,Brannum,54,NA,21,47,60,55,20,73,64,20,46,67,42,85,10,38,22,60,39,79,61,,,,,
Coaches,-1,Keenan,Coulter,62,NA,60,41,34,63,61,21,34,47,12,77,21,56,56,56,33,78,34,36,43,,,,,
Coaches,-1,Jared,Coots,58,NA,61,55,64,78,16,72,35,61,26,90,84,34,54,25,24,89,10,19,76,,,,,
Coaches,-1,Sean,Braddy,47,NA,61,50,42,53,32,83,62,88,36,68,67,89,32,30,30,17,38,92,67,,,,,
Coaches,-1,Lucien,Rosenfeld,32,NA,70,38,72,44,55,45,51,52,51,30,34,32,51,70,32,53,25,2,17,,,,,
Coaches,-1,Felix,Rocants,29,NA,49,65,40,47,34,89,31,80,40,71,34,72,55,67,86,42,48,14,89,,,,,
Coaches,-1,Tai,Navarette,32,NA,34,42,80,76,39,17,24,65,18,16,35,34,27,34,53,70,32,75,88,,,,,
Coaches,-1,Neil,Fleischmann,60,NA,88,46,18,22,81,44,10,65,11,32,25,76,34,50,90,29,27,18,45,,,,,
Coaches,-1,Deandre,Maclin,42,NA,89,37,45,48,18,60,17,25,57,12,50,63,39,30,42,37,66,45,84,,,,,
Coaches,-1,Jonathan,Edmiston,44,NA,23,55,24,80,86,83,13,32,67,30,18,42,58,58,81,12,85,51,39,,,,,
Coaches,-1,Mose,Jock,38,NA,23,56,25,69,89,66,38,58,13,72,24,50,50,19,19,13,42,57,83,,,,,
Coaches,-1,Irwin,Alvares,29,NA,74,54,61,39,22,26,64,86,74,83,46,70,72,17,53,41,74,14,87,,,,,
Coaches,-1,Andrew,Markert,60,NA,65,52,15,25,29,74,80,75,45,12,39,24,14,34,33,70,56,20,30,,,,,
Coaches,-1,Edwin,Clemens,52,NA,44,60,17,72,83,47,75,77,27,21,90,37,83,54,44,43,46,100,86,,,,,
Coaches,-1,Tobias,Whiang,43,NA,49,64,40,57,70,56,70,75,52,19,24,42,28,89,29,47,43,98,82,,,,,
Coaches,-1,Jose,Corn,52,NA,63,53,52,50,83,66,57,50,38,18,13,41,41,20,56,60,54,5,82,,,,,
Coaches,-1,Andrew,Therrien,42,NA,72,40,66,74,25,30,25,81,58,15,15,16,42,79,51,19,74,24,63,,,,,
Coaches,-1,Otto,Alberto,39,NA,88,74,19,43,81,78,25,78,54,46,75,52,90,41,17,75,38,96,34,,,,,
Coaches,-1,Edison,Southworth,66,NA,90,58,17,80,15,73,51,29,33,60,44,50,59,55,60,78,51,78,79,,,,,
Coaches,-1,Robin,Derrico,54,NA,14,44,73,39,55,81,53,22,59,14,79,73,44,71,68,23,58,26,16,,,,,
Coaches,-1,Mathew,Sistrunk,40,NA,21,57,54,76,55,29,87,20,81,73,61,14,11,74,28,61,86,41,24,,,,,
Coaches,-1,Chris,Michel,40,NA,16,46,66,24,44,24,48,49,10,38,40,25,81,83,75,51,67,2,84,,,,,
Coaches,-1,Lynn,Turberville,65,NA,64,54,75,22,25,90,39,15,88,73,76,55,83,52,48,74,47,22,51,,,,,
Coaches,-1,Jordan,Range,36,NA,47,46,45,56,83,24,61,15,44,87,36,73,82,81,69,13,49,88,59,,,,,
Coaches,-1,Michale,Giglio,34,NA,81,64,38,77,86,65,63,42,54,88,33,40,76,88,87,69,44,36,58,,,,,
Coaches,-1,Robbie,Selleck,55,NA,13,50,65,22,90,81,25,48,82,78,21,21,79,79,51,61,76,68,29,,,,,
Coaches,-1,Chauncy,Nowakowski,54,NA,69,60,72,36,70,58,24,77,62,47,79,49,34,68,61,13,34,49,33,,,,,
Coaches,-1,Israel,Dressler,65,NA,73,61,36,22,50,42,55,90,50,68,21,55,42,34,77,89,69,100,26,,,,,
Coaches,-1,Herb,Guice,30,NA,54,48,88,25,36,67,64,32,32,61,68,23,81,18,77,84,12,45,68,,,,,
Coaches,-1,Esteban,Rencher,41,NA,60,58,26,86,55,63,45,48,80,84,11,51,12,59,35,42,35,56,34,,,,,
Coaches,-1,Mehmet,Schreier,52,NA,16,45,27,41,21,47,48,46,28,62,32,87,35,48,88,40,25,99,30,,,,,
Coaches,-1,Billie,Brokaw,50,NA,75,59,10,19,13,87,20,64,38,11,65,63,54,48,49,82,27,67,79,,,,,
Coaches,-1,Donny,Denis,63,NA,81,41,18,46,13,10,59,15,27,88,68,52,39,34,90,23,52,58,29,,,,,
Coaches,-1,Gene,Jewell,61,NA,24,49,70,45,37,60,32,19,38,78,44,16,35,40,21,71,75,5,52,,,,,
Coaches,-1,Everett,Grosso,47,NA,15,57,89,90,17,81,42,54,15,80,16,59,26,40,35,45,19,31,67,,,,,
Coaches,-1,Caleb,Eastwood,36,NA,29,47,78,46,43,16,13,82,63,26,28,65,65,40,21,33,49,91,34,,,,,
Coaches,-1,Paul,Mutumbo,37,NA,55,59,75,51,49,73,72,53,63,59,71,73,63,72,68,58,74,97,72,,,,,
